Licensee Name,DBA,License #,Street Address,City,Zip,Operation,location
THE GIVING TREE OF DENVER LLC,,403-00284,1255 South Huron Street,Denver,80223,Both,1255 South Huron Street Denver CO 80223
SWEET LEAF LLC,SWEET LEAF,403-00377,"110 Yuma Street, Unit 4",Denver,80223,Both,"110 Yuma Street, Unit 4 Denver CO 80223"
COLORADO PRODUCT SERVICES LLC,DOCTORS GARDEN,403-01636,173 Oil Court,Rifle,81650,Both,173 Oil Court Rifle CO 81650
GREEN CROSS COLORADO LLC,,403-01287,2181 10th Street South,Rifle,81650,Both,2181 10th Street South Rifle CO 81650
GREEN MEDICINE LLC,GREEN MEDICINE WELLNESS,403-00849,2187 10th Street South,Rifle,81650,Both,2187 10th Street South Rifle CO 81650
SWEET LEAF PIONEER LLC,,403-00912,"0245 Marmot Lane, #5",Eagle,81631,Both,"0245 Marmot Lane, #5 Eagle CO 81631"
COOPER MASON VENTURES LLC,SILVERPEAK APOTHECARY,403-01539,24530 Highway 82,Basalt,81621,Both,24530 Highway 82 Basalt CO 81621
HERBAL ELEMENTS LLP,HERBAL ELEMENTS,403-00461,"41394 US Highway 6, Units F1 & F2",Avon,81620,Both,"41394 US Highway 6, Units F1 & F2 Avon CO 81620"
J&R PARTNERS LLC,J&R PARTNERS LLC,403-01415,"041290 Highway 6, Unit B5",Avon,81620,Both,"041290 Highway 6, Unit B5 Avon CO 81620"
GREEN ESSENTIALS MEDICAL LLC,,403-01450,1420 Devereux Road,Glenwood Springs,81601,Both,1420 Devereux Road Glenwood Springs CO 81601
ALPINE WELLNESS LLC,,403-00159,765 Vance Drive,Telluride,81435,Both,765 Vance Drive Telluride CO 81435
MARY JANES MEDICINALS LLC,MARY JANE'S MEDICINALS LLC,403R-00446,761 Vance Drive,Telluride,81435,Both,761 Vance Drive Telluride CO 81435
WILLOW NORTH LLC,BUD FARM,403-01335,385 North Willow,Mancos,81328,Both,385 North Willow Mancos CO 81328
DENVER PATIENTS CENTER LLC,SANTE,403-00308,26044 Highway 550 North,Durango,81303,Both,26044 Highway 550 North Durango CO 81303
GREEN STREET DISPENSARY LLC,,403R-00362,"29420 Highway 160 East, Unit B",Durango,81303,Both,"29420 Highway 160 East, Unit B Durango CO 81303"
INDOOR HORTICULTURE CENTERS LLC,SANTE ALTERNATIVE WELLNESS,403-00307,2694 County Road 222,Durango,81303,Both,2694 County Road 222 Durango CO 81303
ACADEMY OF THE HEALING ARTS LLC,HIGH VALLEY HEALING ALAMOSA,403-01353,17505 County Road 52,Saguache,81149,Both,17505 County Road 52 Saguache CO 81149
DESSIMALS INC,LUCKY MONKEY BUDS,403-01689,137 Cedar Street,Trinidad,81082,Both,137 Cedar Street Trinidad CO 81082
FREEDOM ROAD GARDEN LTD,FREEDOM ROAD,403-01699,2600 Freedom Road,Trinidad,81082,Both,2600 Freedom Road Trinidad CO 81082
M&M DISTRIBUTING LLC,M&M DISTRIBUTING,403-01495,422 North Commercial Street,Trinidad,81082,Both,422 North Commercial Street Trinidad CO 81082
TRINIDADS HIGHER CALLING U LLC,,403-01563,1000 Independence Road,Trinidad,81082,Both,1000 Independence Road Trinidad CO 81082
NUVUE PHARMA LLC,,403-01656,413 Eagleridge Boulevard,Pueblo,81008,Both,413 Eagleridge Boulevard Pueblo CO 81008
COLORADO DISTRIBUTING LLC,NATURES NUGS,403-01542,893 East Enterprise Drive,Pueblo West,81007,Both,893 East Enterprise Drive Pueblo West CO 81007
HERITAGE ORGANICS LLC,,403-00092,84 North Precision Drive,Pueblo West,81007,Both,84 North Precision Drive Pueblo West CO 81007
JKC MANUFACTURING LLC,TRIPLE HEALIX,403-01605,73 North Research Drive,Pueblo West,81007,Both,73 North Research Drive Pueblo West CO 81007
PUEBLO WEST ORGANICS LLC,PUEBLO WEST ORGANICS,403-01589,129 East Enterprise Drive,Pueblo,81007,Both,129 East Enterprise Drive Pueblo CO 81007
THE ORGANIC SEED LLC,,403-01422,41 North Precision Drive,Pueblo West,81007,Both,41 North Precision Drive Pueblo West CO 81007
AMERICAN PRIDE GROWERS LLC,AMERICAN PRIDE GROWERS,403-01548,1917 Santa Fe Drive,Pueblo,81006,Both,1917 Santa Fe Drive Pueblo CO 81006
COLORADO BEST BUDZ LLC,,403-01540,"23344 Highway 50 East, Unit B",Pueblo,81006,Both,"23344 Highway 50 East, Unit B Pueblo CO 81006"
GREEN ACRES EMPORIUM LLC,,403-01517,6033 Highway 78 West,Pueblo,81005,Both,6033 Highway 78 West Pueblo CO 81005
DACONO MEDS LLC,SEDGWICK ALTERNATIVE RELIEF,403-01124,107 Main Avenue,Sedgwick,80749,Both,107 Main Avenue Sedgwick CO 80749
LARSEN GROUP LLC,THE GREEN STOP,403-01476,"130 Maine Street, Unit C",Log Lane Village,80705,Both,"130 Maine Street, Unit C Log Lane Village CO 80705"
CANNABIS CARE WELLNESS CENTERS LLC,SMOKEY'S,403-00637,2515 7th Avenue,Garden City,80631,Both,2515 7th Avenue Garden City CO 80631
XG PLATINUM CORPORATION,,403-00837,422 26th Street,Garden City,80631,Both,422 26th Street Garden City CO 80631
ELITE ORGANICS LLC,ELITE ORGANICS,403-01336,"1225 Blue Spruce Drive, Units H-J",Fort Collins,80524,Both,"1225 Blue Spruce Drive, Units H-J Fort Collins CO 80524"
ORGANIC ALTERNATIVES LLC,ORGANIC ALTERNATIVES,403-01299,337 Hickory Street,Fort Collins,80524,Both,337 Hickory Street Fort Collins CO 80524
SEALED ENVIRONMENT AGRICULTURE LABS INC,PURE,403-01697,"1225 Blue Spruce Drive, Unit C",Fort Collins,80524,Both,"1225 Blue Spruce Drive, Unit C Fort Collins CO 80524"
TZ FINANCIAL LLC,HIGH COUNTRY HEALING,403-00334,191 Blue River Parkway,Silverthorne,80498,Both,191 Blue River Parkway Silverthorne CO 80498
RK ENTERPRISES LTD,ROCKY MOUNTAIN REMEDIES,403-01481,"2815 Downhill Plaza, Unit 401",Steamboat Springs,80487,Both,"2815 Downhill Plaza, Unit 401 Steamboat Springs CO 80487"
IGADI LTD,IGADL,403-01558,"72399 US Highway 40, Unit C",Tabernash,80478,Both,"72399 US Highway 40, Unit C Tabernash CO 80478"
KP LLC,THE ALCHEMIST,403-01671,228 Arthur Avenue,Oak Creek,80467,Both,228 Arthur Avenue Oak Creek CO 80467
CT MANAGEMENT SERVICES LLC,GARO DEPOT,403-01653,37671 Highway 9,Fairplay,80440,Both,37671 Highway 9 Fairplay CO 80440
SERENE WELLNESS FRASER LLC,,403-01266,13 East Park Avenue,Empire,80438,Both,13 East Park Avenue Empire CO 80438
ALPENGLOW BOTANICALS LLC,,403R-00093,"1805 Airport Road, #B1C & B1B",Breckenridge,80424,Both,"1805 Airport Road, #B1C & B1B Breckenridge CO 80424"
SUNRISE SOLUTIONS LLC,,403-00856,43 Main Street,Bailey,80421,Both,43 Main Street Bailey CO 80421
CROSSROADS WELLNESS LLC,BOULDER BOTANICS,403-00325,"4727 North Broadway, Unit G",Boulder,80304,Both,"4727 North Broadway, Unit G Boulder CO 80304"
THE GROWING KITCHEN LLC,,403-00398,8401 Baseline Road,Boulder,80303,Both,8401 Baseline Road Boulder CO 80303
COLORADO CANNABIS SERVICES LLC,GREEN CROSS CAREGIVERS,403-00607,"2510 47th Street, Unit G",Boulder,80301,Both,"2510 47th Street, Unit G Boulder CO 80301"
HEALTH SERVICES LLC,GREEN DREAM HEALTH SERVICES,403-01279,"6390 Gunpark Drive, Unit B",Boulder,80301,Both,"6390 Gunpark Drive, Unit B Boulder CO 80301"
5110 RACE LLC,THE SANCTUARY,403-00243,11100 East 51st Avenue,Denver,80239,Both,11100 East 51st Avenue Denver CO 80239
APOTHECARY OF COLORADO LLC,,403-00473,"10625 East 51st Avenue, Unit 103",Denver,80239,Both,"10625 East 51st Avenue, Unit 103 Denver CO 80239"
BIG TOE LLC,FINE TREES,403-00290,5353 Joliet Street,Denver,80239,Both,5353 Joliet Street Denver CO 80239
BK HOLDINGS LLC,,403-01484,12001 East 37th Avenue,Denver,80239,Both,12001 East 37th Avenue Denver CO 80239
BK HOLDINGS LLC,,403-01485,12005 East 37th Avenue,Denver,80239,Both,12005 East 37th Avenue Denver CO 80239
COLORADO CANNABIS COMPANY LLC,PURE MEDICAL DISPENSARY,403-00258,"5475 Peoria Street, Building 1, Unit 112",Denver,80239,Both,"5475 Peoria Street, Building 1, Unit 112 Denver CO 80239"
COLORADO FARMS INC,,403-00017,11975 East 40th Avenue,Denver,80239,Both,11975 East 40th Avenue Denver CO 80239
KIND LOVE LLC,,403-00038,4890 Joliet Street,Denver,80239,Both,4890 Joliet Street Denver CO 80239
LEFT BANK LLC,DIXIE ELIXIRS,403-01445,4990 Oakland Street,Denver,80239,Both,4990 Oakland Street Denver CO 80239
NUTRITIONAL ELEMENTS INC,THE HEALTH CENTER,403-00462,4825 Oakland Street,Denver,80239,Both,4825 Oakland Street Denver CO 80239
ORGANIC GREENS INC,NATURAL REMEDIES,403-01368,4675 Kingston Street,Denver,80239,Both,4675 Kingston Street Denver CO 80239
POTCO LLC,POTCO,403-01371,11101 East 51st Avenue,Denver,80239,Both,11101 East 51st Avenue Denver CO 80239
SERENITY MOON WELLNESS CENTER LLC,FROSTED LEAF,403R-00497,10625 East 51st Avenue,Denver,80239,Both,10625 East 51st Avenue Denver CO 80239
WASH PARK BOUTIQUE LLC,LUCY SKY DISPENSARY,403-01701,4525 Ironton Street,Denver,80239,Both,4525 Ironton Street Denver CO 80239
BOTANACARE LLC,,403-01277,"11450 Cherokee Street, Units A1, A2, A3, A4, A5, A6, A7",Northglenn,80234,Both,"11450 Cherokee Street, Units A1, A2, A3, A4, A5, A6, A7 Northglenn CO 80234"
PHYSICIAN PREFERRED PRODUCTS LLC,DOCS APOTHECARY,403-00955,"2100 East 112th Avenue, Suite 5",Northglenn,80233,Both,"2100 East 112th Avenue, Suite 5 Northglenn CO 80233"
TETRAHYDROCENTER LLC,,403-00663,9206 East Hampden Avenue,Denver,80231,Both,9206 East Hampden Avenue Denver CO 80231
5280 WELLNESS LLC,MMJ AMERICA GOLDEN TRIANGLE,403-00424,1205 West Evans Avenue,Denver,80223,Both,1205 West Evans Avenue Denver CO 80223
ADVANCED MEDICAL ALTERNATIVES LLC,,403-00978,"2252 South Kalamath Street, Unit B",Denver,80223,Both,"2252 South Kalamath Street, Unit B Denver CO 80223"
ADVANCED MEDICAL ALTERNATIVES LLC,,403-01535,"400 South Lipan Street, Unit 23",Denver,80223,Both,"400 South Lipan Street, Unit 23 Denver CO 80223"
ADVANCED MEDICAL ALTERNATIVES LLC,,403-00977,790 West Evans,Denver,80223,Both,790 West Evans Denver CO 80223
ALTERNATIVE MEDICINE ON CAPITOL HILL,,403-00023,231 Wyandot Street,Denver,80223,Both,231 Wyandot Street Denver CO 80223
AT HOME REMEDIES INC,,403-00289,1055 South Fox Street,Denver,80223,Both,1055 South Fox Street Denver CO 80223
CANNABIS FOR HEALTH LLC,,403-00207,155 South Pecos Street,Denver,80223,Both,155 South Pecos Street Denver CO 80223
COMPASSIONATE PAIN MANAGEMENT LLC,CPM,403-00488,1975 South Bannock Street,Denver,80223,Both,1975 South Bannock Street Denver CO 80223
DELTA 9 ALTERNATIVE MEDICINE LLC,STICKY BUDS,403-01180,2219 South Jason Street,Denver,80223,Both,2219 South Jason Street Denver CO 80223
DISCOUNT MEDICAL MARIJUANA LLC,,403-00393,395 Yuma Street,Denver,80223,Both,395 Yuma Street Denver CO 80223
DOCTORS ORDERS LLC,DOCTORS ORDERS,403-01080,1395 South Acoma Street,Denver,80223,Both,1395 South Acoma Street Denver CO 80223
DOCTORS ORDERS LLC,DOCTORS ORDERS,403-01079,2323 South Lipan Street,Denver,80223,Both,2323 South Lipan Street Denver CO 80223
EPMM COLORADO LLC,EDIPURE,403-01252,1344 West Cedar Avenue,Denver,80223,Both,1344 West Cedar Avenue Denver CO 80223
GG MERCANTILE LLC,REDEYE RELEAF,403-01098,1332 South Cherokee Street,Denver,80223,Both,1332 South Cherokee Street Denver CO 80223
HIGH COUNTRY SUPPLY LLC,COLORADO HARVEST COMPANY,403-00269,1178 South Kalamath Street,Denver,80223,Both,1178 South Kalamath Street Denver CO 80223
HIGHLANDS WELLNESS CENTER LLC,THE CLINIC HIGHLANDS,403-00200,"2675 South Santa Fe Drive, Units 6C, 6D, 6E, 6F, 6G & 6H",Denver,80223,Both,"2675 South Santa Fe Drive, Units 6C, 6D, 6E, 6F, 6G & 6H Denver CO 80223"
IVITA WELLNESS II LLC,,403-00962,2150 South Lipan Street,Denver,80223,Both,2150 South Lipan Street Denver CO 80223
JULIE CAMILLE LLC,SWEET GRASS KITCHEN,403-00190,1135 South Jason Street,Denver,80223,Both,1135 South Jason Street Denver CO 80223
KAZIMER LLC,,403-00682,1233 West Alameda Avenue,Denver,80223,Both,1233 West Alameda Avenue Denver CO 80223
KEENS GREENS EDIBLES LLC,,403-01468,"1015 West Evans Avenue, Unit EB",Denver,80223,Both,"1015 West Evans Avenue, Unit EB Denver CO 80223"
KIND LOVE LLC,,403-00035,2116 South Kalamath Street,Denver,80223,Both,2116 South Kalamath Street Denver CO 80223
MEDICALLY CORRECT LLC,INCREDIBLES,403-01019,1308 South Jason Street,Denver,80223,Both,1308 South Jason Street Denver CO 80223
MEDICINAL WELLNESS CENTER LLC,MEDICINAL OASIS LLC,403-01260,1255 West Virginia Avenue,Denver,80223,Both,1255 West Virginia Avenue Denver CO 80223
MILE HIGH GREEN CROSS LLC,,403-01125,"1015 West Evans Avenue, Unit A/B",Denver,80223,Both,"1015 West Evans Avenue, Unit A/B Denver CO 80223"
MILE HIGH MEDICAL LLC,MMJ AMERICA,403-00426,"1885 West Dartmouth Avenue, Units 6 & 8",Denver,80223,Both,"1885 West Dartmouth Avenue, Units 6 & 8 Denver CO 80223"
NATURES BEST LLC,,403-00008,1240 South Bannock Street,Denver,80223,Both,1240 South Bannock Street Denver CO 80223
NATURES CURE III LLC,THE COLFAX POT SHOP,403-00651,1342 West Cedar Avenue,Denver,80223,Both,1342 West Cedar Avenue Denver CO 80223
RINO SUPPLY CO INC,,403-01201,2200 South Lipan Street,Denver,80223,Both,2200 South Lipan Street Denver CO 80223
ROCKY MOUNTAIN WAYS LLC,GOOD MEDS LAKEWOOD,403-01122,870 Navajo Street,Denver,80223,Both,870 Navajo Street Denver CO 80223
SERENDIPITY ENTERPRISES INCORPORATED,SATICA,403-01006,860 Navajo Street,Denver,80223,Both,860 Navajo Street Denver CO 80223
THE HERBAL CURE LLC,,403-00034,2209 South Jason Street,Denver,80223,Both,2209 South Jason Street Denver CO 80223
VITA MEDS LLC,MR. NICEGUYS,403-00551,1397 South Cherokee Street,Denver,80223,Both,1397 South Cherokee Street Denver CO 80223
WELLNESS CENTER OF THE ROCKIES INC,WELLNESS CENTER OF THE ROCKIES INC,403-01509,2130 South Lipan Street,Denver,80223,Both,2130 South Lipan Street Denver CO 80223
CJJ SERVICES LLC,SACRED SEED,403-00362,5885 East Evans Avenue,Denver,80222,Both,5885 East Evans Avenue Denver CO 80222
MAHATMA GANGA LLC,,403-01206,1045 West 45th Avenue,Denver,80221,Both,1045 West 45th Avenue Denver CO 80221
KTA LLC,HIGH STREET CANNABIS STATION,403-00107,890 Navajo Street,Denver,80220,Both,890 Navajo Street Denver CO 80220
CAREGIVERS FOR LIFE LLC,,403-00450,"2744 West 4th Avenue, Unit 100",Denver,80219,Both,"2744 West 4th Avenue, Unit 100 Denver CO 80219"
ADVANCED MEDICAL ALTERNATIVES LLC,,403-00980,501 West 40th Avenue,Denver,80216,Both,501 West 40th Avenue Denver CO 80216
AMERICAN INDUSTRY LLC,DENVER CLONE STORE,403-00731,4571 North Ivy Street,Denver,80216,Both,4571 North Ivy Street Denver CO 80216
CANNABIS KING LLC,GREENWERKZ,403-00224,"3615 Delgany Street, Unit A",Denver,80216,Both,"3615 Delgany Street, Unit A Denver CO 80216"
CG NETWORK LLC,GROUNDSWELL,403-00546,4360 Vine Street,Denver,80216,Both,4360 Vine Street Denver CO 80216
CO-AGRONOMICS LLC,THE GREEN DEPOT,403-01654,4414 Vine Street,Denver,80216,Both,4414 Vine Street Denver CO 80216
COLORADO CARE FACILITY INC,,403-00149,4980 Jackson Street,Denver,80216,Both,4980 Jackson Street Denver CO 80216
CURE MEDICAL PHARM INC,RIVERROCK,403-00058,4935 York Street,Denver,80216,Both,4935 York Street Denver CO 80216
DENCO LLC,,403-00281,5155 East 46th Avenue,Denver,80216,Both,5155 East 46th Avenue Denver CO 80216
DENVER DISPENSARY LLC,,403-01262,4975 Vasquez Boulevard,Denver,80216,Both,4975 Vasquez Boulevard Denver CO 80216
DENVER PATIENTS CENTER LLC,"IHC, SANTE'",403-00184,3895 East 45th Avenue,Denver,80216,Both,3895 East 45th Avenue Denver CO 80216
DENVER RELIEF LLC,DENVER RELIEF LLC,403-00672,5051 East 41st Avenue,Denver,80216,Both,5051 East 41st Avenue Denver CO 80216
DISCOUNT MEDICAL MARIJUANA LLC,,403-00392,3730 East 44th Avenue,Denver,80216,Both,3730 East 44th Avenue Denver CO 80216
DURANGO ALTERNATIVE LLC,ROCKY MOUNTAIN HIGH,403-00241,"4228 York Street, Unit 103, 106 & 107",Denver,80216,Both,"4228 York Street, Unit 103, 106 & 107 Denver CO 80216"
FLEURAISON LLC,FLEURAISON LLC,403R-00570,5923 Broadway,Denver,80216,Both,5923 Broadway Denver CO 80216
FOX STREET WELLNESS LLC,AITAI,403-01217,4773 Fox Street,Denver,80216,Both,4773 Fox Street Denver CO 80216
GOLDEN MEDS INC,GM ENTERPRISE INC,403-01194,5077 North Colorado Boulevard,Denver,80216,Both,5077 North Colorado Boulevard Denver CO 80216
MILE HIGH WELLNESS II LLC,MILE HIGH WELLNESS - GREEN STREET,403-00283,4905 East 41st Avenue,Denver,80216,Both,4905 East 41st Avenue Denver CO 80216
PATIENTS PLUS LLC,,403-00140,505 Bryant Street,Denver,80216,Both,505 Bryant Street Denver CO 80216
PREFERRED ORGANIC THERAPY & WELLNESS LLC,,403-00979,4850 Jackson Street,Denver,80216,Both,4850 Jackson Street Denver CO 80216
THE GREEN SOLUTION LLC,,403-01381,5305 Steele Street,Denver,80216,Both,5305 Steele Street Denver CO 80216
TREATMENTS UNLIMITED LLC,ALTITUDE EAST,403-00396,4550 Jackson Street,Denver,80216,Both,4550 Jackson Street Denver CO 80216
TWOG YORK LLC,BUDDY BOY,403-01139,4501 Wynkoop Street #101,Denver,80216,Both,4501 Wynkoop Street #101 Denver CO 80216
UNIVERSAL HERBS LLC,,403-00395,"5959 East 39th Avenue, Unit 102",Denver,80216,Both,"5959 East 39th Avenue, Unit 102 Denver CO 80216"
BACK TO THE GARDEN HEALTH & WELLNESS CENTER LLC,,403-00865,4500 Jason Street,Denver,80211,Both,4500 Jason Street Denver CO 80211
ORGANIC GREENS INC,NATURAL REMEDIES,403-01154,4105 Jason Street,Denver,80211,Both,4105 Jason Street Denver CO 80211
PLATTE VALLEY DISPENSARY LLC,,403-00875,3104 Blake Street,Denver,80211,Both,3104 Blake Street Denver CO 80211
COLORADO WELLNESS INC,,403-01170,2057 South Broadway,Denver,80210,Both,2057 South Broadway Denver CO 80210
GANJA GOURMET LLC,,403-00987,1955 South Bannock Street,Denver,80210,Both,1955 South Bannock Street Denver CO 80210
HERBAL ALTERNATIVES LLC,NEW BROADSTERDAM,403-01031,2568 South Broadway,Denver,80210,Both,2568 South Broadway Denver CO 80210
BEYOND BROADWAY LLC,LIVWELL,403-00574,432 South Broadway,Denver,80209,Both,432 South Broadway Denver CO 80209
THE HERBAL CURE LLC,,403-00747,985 South Logan Street,Denver,80209,Both,985 South Logan Street Denver CO 80209
BUD MED HEALTH CENTERS LLC,LIVE GREEN CANNABIS,403-00863,5775 East 39th Avenue,Denver,80207,Both,5775 East 39th Avenue Denver CO 80207
LIGHTSHADE LABS LLC,LIGHTSHADE,403-00378,3950 Holly Street,Denver,80207,Both,3950 Holly Street Denver CO 80207
MJLQ LLC,WHOLE MEDS,403-01469,"5959 East 39th Avenue, Unit 101",Denver,80207,Both,"5959 East 39th Avenue, Unit 101 Denver CO 80207"
NEW AGE MEDICAL LLC,NEWAGE MEDICAL LLC,403-00303,3857 Elm Street,Denver,80207,Both,3857 Elm Street Denver CO 80207
TMED LLC,THE GRASS STATION,403-01376,7200 East Smith Road,Denver,80207,Both,7200 East Smith Road Denver CO 80207
DGP WALNUT LLC,SWEET LEAF,403-00221,2609 Walnut Street,Denver,80205,Both,2609 Walnut Street Denver CO 80205
IVITA WELLNESS LLC,IVITA WELLNESS,403-00271,1660 East 40th Avenue,Denver,80205,Both,1660 East 40th Avenue Denver CO 80205
IVITA WELLNESS LLC,IVITA,403-01394,"1660 East 40th Avenue, Unit A",Denver,80205,Both,"1660 East 40th Avenue, Unit A Denver CO 80205"
LUCKY SWEETS LLC,LUCKY SWEETS LLC,403-01392,3980 Franklin Street,Denver,80205,Both,3980 Franklin Street Denver CO 80205
MMD OF COLORADO LLC,,403-00286,3954 Williams Street,Denver,80205,Both,3954 Williams Street Denver CO 80205
A CUT OFF THE TOP MEDICAL MARIJUANA LLC,,403-00128,2059 West 9th Avenue,Denver,80204,Both,2059 West 9th Avenue Denver CO 80204
BUSHES LLC,,403-01106,2650 West 6th Avenue,Denver,80204,Both,2650 West 6th Avenue Denver CO 80204
F-SQUARED INDUSTRIES LLC,WELLNESS CENTER OF DENVER,403-00624,788 Vallejo Street,Denver,80204,Both,788 Vallejo Street Denver CO 80204
JOIS LLC,SILVER STEM FINE CANNABIS,403-00493,2731 West Short Place,Denver,80204,Both,2731 West Short Place Denver CO 80204
MAYFLOWER GROUP LLC,THE HEALTH CENTER,403-00827,658 Kalamath Street,Denver,80204,Both,658 Kalamath Street Denver CO 80204
METRO CANNABIS INC,SILVER STEM FINE CANNABIS,403-00109,1235 Umatilla Street,Denver,80204,Both,1235 Umatilla Street Denver CO 80204
MMJ AMERICA INC,BOULDER MMJ,403-00423,1617 West 12th Avenue,Denver,80204,Both,1617 West 12th Avenue Denver CO 80204
SISSCO LLC,TRENCHTOWN,403-00840,1619 West 12th Avenue,Denver,80204,Both,1619 West 12th Avenue Denver CO 80204
TIMBERLINE HERBAL CLINIC AND WELLNESS CENTER LLC,,403-00421,665 Kalamath Street,Denver,80204,Both,665 Kalamath Street Denver CO 80204
URBAN CANNABIS LLC,HEALING HOUSE,403-00182,1100 Yuma Court,Denver,80204,Both,1100 Yuma Court Denver CO 80204
XG PLATINUM CORPORATION,,403-01572,525 Bryant Street,Denver,80204,Both,525 Bryant Street Denver CO 80204
ABUNDANT HEALTH DENVER LLC,HERBAN UNDERGROUND,403-00457,"70 Broadway, Suite 50",Denver,80203,Both,"70 Broadway, Suite 50 Denver CO 80203"
1617 WAZEE STREET LLC,LODO WELLNESS CENTER,403-00019,"1617 Wazee Street, Unit B",Denver,80202,Both,"1617 Wazee Street, Unit B Denver CO 80202"
BOULDER ORGANIC FOOD GROUP LLC,COLORADO PURE VAPE,403-01313,9135 West 44th Avenue,Wheat Ridge,80033,Both,9135 West 44th Avenue Wheat Ridge CO 80033
BOULDER SWEET GRASS LLC,SWEET MARY JANE,403-01483,"1224 Commerce Court, Unit 3",Lafayette,80026,Both,"1224 Commerce Court, Unit 3 Lafayette CO 80026"
RFSC LLC,ROOTS RX,403R-00327,421 Upper Cattle Creek Rd,Carbondale,81623,Retail,421 Upper Cattle Creek Rd Carbondale CO 81623
GENERAL CANNABIS LABS LLC,GENERAL CANNABIS LABS,403R-00595,37047 Highway 550,Montrose,81403,Retail,37047 Highway 550 Montrose CO 81403
THE POT SHOP LLC,THE POT SHOP LLC,403R-00337,67085 US Highway 50,Gunnison,81230,Retail,67085 US Highway 50 Gunnison CO 81230
DARK HORSE GENETICS LLC,,403R-00597,63520 East State Highway 96,Boone,81025,Retail,63520 East State Highway 96 Boone CO 81025
HASHISH HOUSE LLC,HASHISH HOUSE,403R-00233,63500 East State Highway 96,Boone,81025,Retail,63500 East State Highway 96 Boone CO 81025
K.I.N.D. WELLNESS CENTER LLC,K.I.N.D. WELLNESS CENTER LLC,403R-00210,102 North River Road,Snowmass,81654,Retail,102 North River Road Snowmass CO 81654
COLORADO MEDICAL MARIJUANA SUPPLY INC,LEAF ASPEN,403R-00371,3010 Airport Rd,Rifle,81650,Retail,3010 Airport Rd Rifle CO 81650
COLORADO MEDICAL MARIJUANA SUPPLY INC,LEAF ASPEN,403-01461,3010 Airport Road,Rifle,81650,Medical,3010 Airport Road Rifle CO 81650
COLORADO PRODUCT SERVICES LLC,DOCTOR'S GARDEN,403R-00382,184 Gas Court,Rifle,81650,Retail,184 Gas Court Rifle CO 81650
GREEN NATURAL SOLUTIONS INC,,403-01249,4501 Silt Mesa Road,Rifle,81650,Medical,4501 Silt Mesa Road Rifle CO 81650
RIFLE REMEDIES LLC,THE GROW HOUSE,403-00763,0208 County Road 227,Rifle,81650,Medical,0208 County Road 227 Rifle CO 81650
MML LLC,HOLISTIC HEALTHCARE,403-00465,"38150 River Frontage Road, Unit 3D",New Castle,81647,Medical,"38150 River Frontage Road, Unit 3D New Castle CO 81647"
TNT BOTANICALS LLC,TNT BOTANICALS,403R-00507,11157 Gypsum Creek Road,Gypsum,81637,Retail,11157 Gypsum Creek Road Gypsum CO 81637
NEW HOPE WELLNESS CENTER LLC,,403R-00342,210 Edwards Village Boulevard Unit B-210,Edwards,81632,Retail,210 Edwards Village Boulevard Unit B-210 Edwards CO 81632
NEW HOPE WELLNESS CENTER LLC,,403-00231,"210 Edwards Village Boulevard, Unit B-210",Edwards,81632,Medical,"210 Edwards Village Boulevard, Unit B-210 Edwards CO 81632"
DISTRICT 8 HOLDINGS LLC,,403R-00578,2139 45 Road,De Beque,81630,Retail,2139 45 Road De Beque CO 81630
ELK MOUNTAIN TRADING POST LLC,ELK MOUNTAIN TRADING POST LLC,403R-00412,170 East 3rd Street,De Beque,81630,Retail,170 East 3rd Street De Beque CO 81630
CATTLE CREEK CULTIVATIONS LLC,,403R-00345,"420 Upper Cattle Creek Road, Lot 4",Carbondale,81623,Retail,"420 Upper Cattle Creek Road, Lot 4 Carbondale CO 81623"
CMED LLC,COLOMED CENTER,403-00848,615 Buggy Circle Unit D,Carbondale,81623,Medical,615 Buggy Circle Unit D Carbondale CO 81623
CMED LLC,,403R-00089,"615 Buggy Circle, Unit D",Carbondale,81623,Retail,"615 Buggy Circle, Unit D Carbondale CO 81623"
COLORADO MEDICAL MARIJUANA SUPPLY INC,LEAF,403-01214,1676 CR 100 Unit N-2,Carbondale,81623,Medical,1676 CR 100 Unit N-2 Carbondale CO 81623
COLORADO PRODUCT SERVICES LLC,DOCTOR'S GARDEN,403R-00182,655 Buggy Circle,Carbondale,81623,Retail,655 Buggy Circle Carbondale CO 81623
COOPER MASON VENTURES 2 LLC,,403R-00298,11556 Highway 133,Carbondale,81623,Retail,11556 Highway 133 Carbondale CO 81623
COOPER MASON VENTURES LLC,SILVERPEAK APOTHECARY,403R-00185,11556 Highway133,Carbondale,81623,Retail,11556 Highway133 Carbondale CO 81623
COOPER MASON VENTURES LLC,SILVERPEAK APOTHECARY,403-01207,11556 Hwy 133,Carbondale,81623,Medical,11556 Hwy 133 Carbondale CO 81623
CRYSTAL RIVER GROWERS,,403R-00523,"220 North 12th Street, Unit A",Carbondale,81623,Retail,"220 North 12th Street, Unit A Carbondale CO 81623"
RFSCG1 LLC,,403R-00322,421 Upper Cattle Creek Road,Carbondale,81623,Retail,421 Upper Cattle Creek Road Carbondale CO 81623
VAIL BUD BREWERY LLC,VAIL BUDZ,403R-00466,"40928 Highway 6, Unit 2-C",Avon,81620,Retail,"40928 Highway 6, Unit 2-C Avon CO 81620"
WILLS CONSULTING LLC,,403R-00463,"40690 Highway 6, Unit F",Avon,81620,Retail,"40690 Highway 6, Unit F Avon CO 81620"
UNITED PATIENTS OF AMERICA LLC,ASPEN ROARING FORK WELLNESS,403-00050,0178 Medicine Bow Road,Aspen,81611,Medical,0178 Medicine Bow Road Aspen CO 81611
GREEN NATURAL SOLUTIONS INC,,403-00382,3 Seven Oaks Road,Glenwood Springs,81601,Medical,3 Seven Oaks Road Glenwood Springs CO 81601
OSIRIS LLC,,403R-00576,2150 Devereux Road,Glenwood Springs,81601,Retail,2150 Devereux Road Glenwood Springs CO 81601
COLORADO ALTERNATIVE HEALTH CARE LTD,PALISADES HEALTH CARE,403-00142,"125 Peach Avenue, Unit B",Palisade,81526,Medical,"125 Peach Avenue, Unit B Palisade CO 81526"
DELILAH LLC,,403R-00238,753 & 755 Vance Drive,Telluride,81435,Retail,753 & 755 Vance Drive Telluride CO 81435
DELILAH LLC,,403-01433,753 Vance Drive,Telluride,81435,Medical,753 Vance Drive Telluride CO 81435
NEW WORLD ALTERNATIVE HEALTHCARE LLC,,403R-00197,135 South Spruce Street,Telluride,81435,Retail,135 South Spruce Street Telluride CO 81435
TELLURIDE GREEN ROOM LLC,TELLURIDE GREEN ROOM,403R-00175,"711 South Park Road, #E",Telluride,81435,Retail,"711 South Park Road, #E Telluride CO 81435"
TELLURIDE GREEN ROOM LLC,TELLURIDE GREEN ROOM,403-00709,711E South Park Road,Telluride,81435,Medical,711E South Park Road Telluride CO 81435
DANIEL BURNETT VIGUERIA,RECREATIONAL SERVICES COMPANY,403R-00372,336 King Avenue,Somerset,81434,Retail,336 King Avenue Somerset CO 81434
KENDALL MOUNTAIN LLC,SILVERTON GREEN WORKS,403R-00347,"124 East 13th Street, Unit A",Silverton,81433,Retail,"124 East 13th Street, Unit A Silverton CO 81433"
SAN JUAN CULTIVATION LLC,CANNAFARMER,403R-00569,71463 US Highway 550,Silverton,81433,Retail,71463 US Highway 550 Silverton CO 81433
ACME DISPENSARY INC,,403-00762,22327 Highway 550 Lot B,Ridgway,81432,Medical,22327 Highway 550 Lot B Ridgway CO 81432
ACME DISPENSARY INC,,403R-00205,22327 US Hwy 550 LOT B,Ridgeway,81432,Retail,22327 US Hwy 550 LOT B Ridgeway CO 81432
ACME HEALING CENTER OF RIDGWAY LLC,,403-01278,"22327 Highway 550, Lot B",Ridgway,81432,Medical,"22327 Highway 550, Lot B Ridgway CO 81432"
ACME HEALING CENTER OF RIDGWAY LLC,,403R-00204,22327 US Hwy 550 Lot B,Ridgway,81432,Retail,22327 US Hwy 550 Lot B Ridgway CO 81432
DURANGO HEALING CENTER LLC,ACME HEALING CENTER,403-00712,22327 US Highway 550 Lot B,Ridgway,81432,Medical,22327 US Highway 550 Lot B Ridgway CO 81432
SHINING MOUNTAIN LLC,SHINING MOUNTAIN LLC,403R-00510,5636 County Road 23,Ridgway,81432,Retail,5636 County Road 23 Ridgway CO 81432
THCULTIVATION LLC,THCULTIVATION,403R-00494,5492 County Road 23,Ridgway,81432,Retail,5492 County Road 23 Ridgway CO 81432
DALLAS CREEK NURSERIES LLC,,403R-00604,304 Weahgatay Road,Montrose,81403,Retail,304 Weahgatay Road Montrose CO 81403
GREEN MEADOWS DISPENSARY LLC,,403-00727,23360 South Highway 550,Montrose,81403,Medical,23360 South Highway 550 Montrose CO 81403
P&C EXPRESS LLC,ROCKY MOUNTAIN HIGH DISPENSARY,403-00860,4860 North Townsend Avenue,Montrose,81401,Medical,4860 North Townsend Avenue Montrose CO 81401
HESPERUS MOUNTAIN HEALERS LLC,,403R-00484,444 Conestoga Way,Hesperus,81326,Retail,444 Conestoga Way Hesperus CO 81326
DAVID KRZYSZTOFIAK LLC,THE HERBAL ALTERNATIVE,403-00804,1531 N Lebanon Rd,Cortez,81321,Medical,1531 N Lebanon Rd Cortez CO 81321
DAVID KRZYSZTOFIAK LLC,THE HERBAL ALTERNATIVE,403R-00391,1531 North Lebanon Road,Cortez,81321,Retail,1531 North Lebanon Road Cortez CO 81321
DURANGO ORGANICS LLP,DO CORTEZ,403-00722,1104 East Main Street,Cortez,81321,Medical,1104 East Main Street Cortez CO 81321
GREEN KIWI 4 LLC,THE BEACON,403-00861,1740 East Main Street,Cortez,81321,Medical,1740 East Main Street Cortez CO 81321
THE MEDICINE MAN LLC,THE MEDICINE MAN LLC,403R-00444,2301 South Broadway,Cortez,81321,Retail,2301 South Broadway Cortez CO 81321
THE MEDICINE MAN LLC,,403-00604,310 East Main Street,Cortez,81321,Medical,310 East Main Street Cortez CO 81321
DURANGO ORGANICS LLP,DURANGO ORGANICS,403-01668,12929 Highway 550 South,Durango,81303,Medical,12929 Highway 550 South Durango CO 81303
DURANGO ORGANICS LLP,DURANGO ORGANICS,403R-00332,12929 US HWY 550 SOUTH,Durango,81303,Retail,12929 US HWY 550 SOUTH Durango CO 81303
DURANGO ORGANICS LLP,,403-00786,12929 South US Highway 550,Durango,81301,Medical,12929 South US Highway 550 Durango CO 81301
MHSDGO LLC,MHS,403-00792,"789 Tech Center Drive, Unit E",Durango,81301,Medical,"789 Tech Center Drive, Unit E Durango CO 81301"
MJ DURANGO LLC,,403R-00592,28753 East US Highway 160,Durango,81301,Retail,28753 East US Highway 160 Durango CO 81301
THE ACCEPTUS GROUP LLC,COLORADO GROW COMPANY,403R-00378,83 Davidson Creek Rd,Durango,81301,Retail,83 Davidson Creek Rd Durango CO 81301
WILD WEST WEED LLC,WILD WEST WEED,403R-00585,1765 D-K Drive,Durango,81301,Retail,1765 D-K Drive Durango CO 81301
5110 RACE LLC,THE SANCTUARY WELLNESS CENTER,403-01342,890 7th Street,Penrose,81240,Medical,890 7th Street Penrose CO 81240
ALTERNATIVE MEDICAL REMEDIES,,403-00134,1450 L Street,Penrose,81240,Medical,1450 L Street Penrose CO 81240
C^3 COLORADO SPRINGS LLC,PURE INTENTIONS WELLNESS CENTER,403-01286,"685 Highway 115, Unit B",Penrose,81240,Medical,"685 Highway 115, Unit B Penrose CO 81240"
MILE HIGH GREEN CROSS LLC,,403-01285,"685 Highway 115, Unit A",Penrose,81240,Medical,"685 Highway 115, Unit A Penrose CO 81240"
PURE MEDICAL LLC,,403-01338,440 8th Street,Penrose,81240,Medical,440 8th Street Penrose CO 81240
THRESSOR LLC,AMERICAN NECTAR,403-01608,708 Fremont Street,Penrose,81240,Medical,708 Fremont Street Penrose CO 81240
TODAYS HEALTH CARE II LLC,TODAYS HEALTH CARE II LLC,403-01393,934 C Street,Penrose,81240,Medical,934 C Street Penrose CO 81240
TODAYS HEALTH CARE LLC,TODAYS HEALTH CARE LLC,403-01351,1015 Highway 115,Penrose,81240,Medical,1015 Highway 115 Penrose CO 81240
CANNATONIC LLC,,403R-00442,400 Industrial Park Road,Gunnison,81230,Retail,400 Industrial Park Road Gunnison CO 81230
CCCENTER7 LLC,,403R-00369,103 Basin Park Drive,Gunnison,81230,Retail,103 Basin Park Drive Gunnison CO 81230
SOUTHERN CHARM ORGANICS LLC,,403R-00394,435 Industrial Park Road,Gunnison,81230,Retail,435 Industrial Park Road Gunnison CO 81230
HIGH MOUNTAIN MEDZ LLC,,403-01391,3000 County Road 103,Florence,81226,Medical,3000 County Road 103 Florence CO 81226
MAGGIES FARM LLC,,403-01153,4211 County Road 84,Florence,81226,Medical,4211 County Road 84 Florence CO 81226
VIRTUAL MARKETING LLC,MAGGIE'S FARM,403-00655,4211 Fremont County Road 84,Florence,81226,Medical,4211 Fremont County Road 84 Florence CO 81226
CRESTED BUTTE CONCENTRATES LLC,CRESTED BUTTE CONCENTRATES LLC,403R-00339,398 Riverland Dr,Crested Butte,81224,Retail,398 Riverland Dr Crested Butte CO 81224
PURE INDUSTRIES LLC,,403R-00410,"398 Riverland Drive, Suites 1-B, 1-C, 2-C",Crested Butte,81224,Retail,"398 Riverland Drive, Suites 1-B, 1-C, 2-C Crested Butte CO 81224"
THE ORGANIC SEED LLC,,403-01452,1785 Kit Carson Trail,Cotopaxi,81223,Medical,1785 Kit Carson Trail Cotopaxi CO 81223
HAMME-BASTI LLC,NATURAL MYSTIC WELLNESS CENTER,403-01255,204 East Main Street,Buena Vista,81211,Medical,204 East Main Street Buena Vista CO 81211
JMC ENTERPRISES INC,FREMONT COUNTY CANNABIS,403-00230,"19256 County Road 343, Unit D",Buena Vista,81211,Medical,"19256 County Road 343, Unit D Buena Vista CO 81211"
3-D DENVERS DISCREET DISPENSARY LLC,3D CANNABIS CENTER,403-01482,7706 County Road 150,Salida,81201,Medical,7706 County Road 150 Salida CO 81201
BERLIN INTERNATIONAL LLC,CANNIKA,403-01466,7800 County Road 152,Salida,81201,Medical,7800 County Road 152 Salida CO 81201
BERLIN INTERNATIONAL LLC,,403R-00301,"7800 Hannah Lane, County Road 152",Salida,81201,Retail,"7800 Hannah Lane, County Road 152 Salida CO 81201"
BIOENERGETIC HEALING CENTER LLC,,403R-00163,7851 County Road 150,Salida,81201,Retail,7851 County Road 150 Salida CO 81201
ECOMED LLC,NATURES MEDICINE SALIDA,403R-00320,"7729 CR 150, Suites A-C",Salida,81201,Retail,"7729 CR 150, Suites A-C Salida CO 81201"
GARCIA & MAESTAS INC,LA CASA CANNABIS II,403-01308,23320 County Road K-5,San Luis,81152,Medical,23320 County Road K-5 San Luis CO 81152
GM INC,GREEN WORLD,403R-00330,23320 County Road K5,San Luis,81152,Retail,23320 County Road K5 San Luis CO 81152
HIERBA BUENA LLC,HIERBA BUENA,403R-00401,"20663 Unit B, County Road P6",San Luis,81152,Retail,"20663 Unit B, County Road P6 San Luis CO 81152"
LA CASA CANNABIS INC,,403-00172,23320 County Road K.5,San Luis,81152,Medical,23320 County Road K.5 San Luis CO 81152
"MOUNTAIN HIGH 14,047 LLC",,403R-00546,22057 County Road K.5,San Pablo,81152,Retail,22057 County Road K.5 San Pablo CO 81152
VISTABUDS LLC,,403R-00564,10788 County Road 21,San Pablo,81152,Retail,10788 County Road 21 San Pablo CO 81152
ELEV8ED EXCELLENCE INC,,403R-00590,14890 CR .2,San Acacio,81151,Retail,14890 CR .2 San Acacio CO 81151
KIND BARON LLC,KIND BARON LLC,403R-00574,14231 County Road 55,Saguache,81149,Retail,14231 County Road 55 Saguache CO 81149
DELANY & ASSOCIATES LLC,GOOD EARTH MEDS,403R-00328,"600 Cloman Boulevard, #5, 6,7, 8",Pagosa Springs,81147,Retail,"600 Cloman Boulevard, #5, 6,7, 8 Pagosa Springs CO 81147"
DELANY & ASSOCIATES LLC,GOOD EARTH MEDS,403-00726,"600 Cloman Boulevard, Units 5, 6,7, 8",Pagosa Springs,81147,Medical,"600 Cloman Boulevard, Units 5, 6,7, 8 Pagosa Springs CO 81147"
J and J ENTERPRISES INC,PAGOSA ORGANIC THERAPEUTICS,403-01356,"298 Bastille Drive, Units A7 & 9",Pagosa Springs,81147,Medical,"298 Bastille Drive, Units A7 & 9 Pagosa Springs CO 81147"
J and J ENTERPRISES INC,PAGOSA ORGANIC THERAPEUTICS,403R-00346,354 Bastille Drive,Pagosa Springs,81147,Retail,354 Bastille Drive Pagosa Springs CO 81147
SACRED VALLEY MEDICINE LLC,,403R-00440,61185 County Road T,Moffat,81143,Retail,61185 County Road T Moffat CO 81143
SOUTHERN COLORADO THERAPEUTICS INC,HIGHLAND HEALTH,403R-00420,63003 County Road CC,Moffat,81143,Retail,63003 County Road CC Moffat CO 81143
FROST HARVEST CO INC,,403-00705,"County Road 17, Highway 160",Fort Garland,81133,Medical,"County Road 17, Highway 160 Fort Garland CO 81133"
1-11 LLC,1:11,403R-00537,54414 County Road F,Center,81125,Retail,54414 County Road F Center CO 81125
BUD HUT INC,BUD HUT INC,403R-00553,"973 U.S. Highway 85 87, Suite 100",Walsenburg,81089,Retail,"973 U.S. Highway 85 87, Suite 100 Walsenburg CO 81089"
WAHATOYA FARMS LLC,WAHATOYA FARMS LLC,403R-00536,25462 West US Highway 160,Walsenburg,81089,Retail,25462 West US Highway 160 Walsenburg CO 81089
CANNA COMPANY,CANNACO,403R-00419,3019 Toupal Drive,Trinidad,81082,Retail,3019 Toupal Drive Trinidad CO 81082
FARAGOSI FARMS INC,FARAGOSI FARMS,403R-00486,612 Hainlen Street,Trinidad,81082,Retail,612 Hainlen Street Trinidad CO 81082
THE GROW FOUNDRY INC,CODA SIGNATURE,403R-00514,1105 Constitution Drive,Trinidad,81082,Retail,1105 Constitution Drive Trinidad CO 81082
ALTERNATIVE HOLISTIC HEALING LLC,ROCKY MOUNTAIN ORGANICS LLC,403R-00374,6480 Pickney Rd,Rye,81069,Retail,6480 Pickney Rd Rye CO 81069
CGE LLC,CANN GROW,403R-00545,"6040 Big Sky, Building A",Rye,81069,Retail,"6040 Big Sky, Building A Rye CO 81069"
POPS FARM INC,POP'S FARM INC,403R-00584,3943 County Road 650,Rye,81069,Retail,3943 County Road 650 Rye CO 81069
SCG SERVICES LLC,SOUTHERN COLORADO GROWERS,403R-00573,853 Greenhorn Mountain Circle,Rye,81069,Retail,853 Greenhorn Mountain Circle Rye CO 81069
VIRIDIS POLLEX LLC,,403R-00601,900 Conductor Court,Rye,81069,Retail,900 Conductor Court Rye CO 81069
A2ZINC LLC,ZGREENS CO,403R-00503,2177 57th Lane,Boone,81025,Retail,2177 57th Lane Boone CO 81025
BOONE FARMS LLC,,403R-00467,60710 Highway 96E,Boone,81025,Retail,60710 Highway 96E Boone CO 81025
CURE PUEBLO LLC,,403R-00436,63490 East Highway 96,Boone,81025,Retail,63490 East Highway 96 Boone CO 81025
LANTZ INDUSTRIES LLC,,403R-00473,"50100 Route 96, Suite A",Boone,81025,Retail,"50100 Route 96, Suite A Boone CO 81025"
MEDICAL CANNABIS COLORADO LLC,CURE COLORADO,403-01587,63510 East Highway 96,Boone,81025,Medical,63510 East Highway 96 Boone CO 81025
PUEBLO FARMS LLC,PUEBLO FARMS,403R-00425,63496 East Highway 96,Boone,81025,Retail,63496 East Highway 96 Boone CO 81025
PUEBLO FARMS LLC,,403R-00461,68200 East Highway 96,Boone,81025,Retail,68200 East Highway 96 Boone CO 81025
STEALTHFARMS LLC,,403R-00572,58764 East Highway 50,Boone,81025,Retail,58764 East Highway 50 Boone CO 81025
BEULAH VALLEY FARMS LLC,,403R-00476,7791 Highway 78 West,Beulah,81023,Retail,7791 Highway 78 West Beulah CO 81023
"WHITE MEADOWS CULTIVATION, LLC",,403R-00563,7013 Burnt Mill Road,Beulah,81023,Retail,7013 Burnt Mill Road Beulah CO 81023
SUNCANNA LLC,,403R-00549,39327 Harbour Road,Avondale,81022,Retail,39327 Harbour Road Avondale CO 81022
COMPLIANCE INITIATIVES LLC,STRAWBERRY FIELDS ALTERNATIVE HEALTH AND WELLNESS,403-01507,9000 South Interstate 25,Colorado City,81019,Medical,9000 South Interstate 25 Colorado City CO 81019
ALTERNATIVE HOLISTIC HEALING LLC,ROCKY MTN ORGANICS,403R-00421,7445 Rex Road,Pueblo,81007,Retail,7445 Rex Road Pueblo CO 81007
AMERIJUANA INC,,403R-00517,72 North Lazer Drive,Pueblo West,81007,Retail,72 North Lazer Drive Pueblo West CO 81007
CCOMAG,H.O.G. PHARM,403R-00402,24C North Research Drive,Pueblo,81007,Retail,24C North Research Drive Pueblo CO 81007
COLORADO CANNABIS ASSOCIATES LLC,NATURES REMEDY WELLNESS,403-00476,748 East Industrial Blvd.,Pueblo West,81007,Medical,748 East Industrial Blvd. Pueblo West CO 81007
COLORADO CANNABIS ASSOCIATES LLC,NATURES REMEDY WELLNESS,403R-00206,748 East Industrial Boulevard,Pueblo West,81007,Retail,748 East Industrial Boulevard Pueblo West CO 81007
COMPASSIONATE CARE COOP.,COMPASSIONATE CARE COOP LLC,403-01492,38 N. Silicon Drive,Pueblo West,81007,Medical,38 N. Silicon Drive Pueblo West CO 81007
FIPG LLC,,403-01632,"67 North Silicon Drive, Suites 130,140, 150",Pueblo West,81007,Medical,"67 North Silicon Drive, Suites 130,140, 150 Pueblo West CO 81007"
GG-MMD INC,GG-MMD INC,403-01454,920 East Spaulding Avenue,Pueblo West,81007,Medical,920 East Spaulding Avenue Pueblo West CO 81007
HERITAGE ORGANICS LLC,,403-01640,78 North Precision Drive,Pueblo West,81007,Medical,78 North Precision Drive Pueblo West CO 81007
MAGGIES FARM LLC,MAGGIE'S FARM,403-01421,"74 North Component Drive, Suite 170",Pueblo West,81007,Medical,"74 North Component Drive, Suite 170 Pueblo West CO 81007"
MODERN MEDICINE LLC,ALTITUDE ORGANICS,403R-00540,69 North Mission Drive,Pueblo,81007,Retail,69 North Mission Drive Pueblo CO 81007
NATURES GIFT SHOP LLC,,403R-00336,148 E Assembly Dr,Pueblo West,81007,Retail,148 E Assembly Dr Pueblo West CO 81007
ORGANIC SOLUTIONS INC,,403-01096,152 East Industrial Boulevard,Pueblo West,81007,Medical,152 East Industrial Boulevard Pueblo West CO 81007
PALO VERDE LLC,,403R-00360,78 N Silicon Drive,Pueblo West,81007,Retail,78 N Silicon Drive Pueblo West CO 81007
PI ORGANICS INC,,403R-00531,"77 North Laser Drive, Suites I-1&2",Pueblo West,81007,Retail,"77 North Laser Drive, Suites I-1&2 Pueblo West CO 81007"
PUEBLO WEST ORGANICS LLC,PUEBLO WEST ORGANICS,403R-00162,56 N Precision Drive,Pueblo West,81007,Retail,56 N Precision Drive Pueblo West CO 81007
PUEBLO WEST ORGANICS LLC,,403-01298,56 North Precision Drive,Pueblo West,81007,Medical,56 North Precision Drive Pueblo West CO 81007
PUEBLO WEST ORGANICS LLC,PUEBLO WEST ORGANICS,403R-00227,"609 East Enterprise Drive, Suite 120, 130",Pueblo West,81007,Retail,"609 East Enterprise Drive, Suite 120, 130 Pueblo West CO 81007"
PUEBLO WEST ORGANICS LLC,,403-01420,"609 East Enterprise Drive, Units 120, 130 & 140",Pueblo,81007,Medical,"609 East Enterprise Drive, Units 120, 130 & 140 Pueblo CO 81007"
QUANTUM 137 LLC,QUANTUM 137 LLC,403R-00560,24 North Fabrication,Pueblo,81007,Retail,24 North Fabrication Pueblo CO 81007
SKY UNLIMITED LLC,SKY UNLIMITED LLC,403R-00518,"59 North Fabrication Drive, Suite A",Pueblo West,81007,Retail,"59 North Fabrication Drive, Suite A Pueblo West CO 81007"
STEEL CITY DEVELOPMENT LLC,PLATINUM ORGANICS LLC,403R-00552,77 North Magento Drive,Pueblo West,81007,Retail,77 North Magento Drive Pueblo West CO 81007
THE ORGANIC SEED LLC,CANNASSEUR,403R-00283,59 North Laser Drive,Pueblo,81007,Retail,59 North Laser Drive Pueblo CO 81007
THREE RIVERS DEVELOPMENT LLC,THREE RIVERS ORGANICS,403-01585,83 North Magento Drive,Pueblo,81007,Medical,83 North Magento Drive Pueblo CO 81007
TNT FARMS LLC,TNT FARMS LLC,403R-00547,96 North Precision Drive,Pueblo West,81007,Retail,96 North Precision Drive Pueblo West CO 81007
TODAYS HEALTH CARE LLC,,403-01442,286 South Purcell Boulevard,Pueblo West,81007,Medical,286 South Purcell Boulevard Pueblo West CO 81007
VIRTUAL MARKETING LLC,MAGGIE'S FARM,403-01562,"74 North Component Drive, #160",Pueblo,81007,Medical,"74 North Component Drive, #160 Pueblo CO 81007"
YETI FARMS LLC,"YETI FARMS, LLC",403-01474,1650 Siloam Road,Pueblo,81007,Medical,1650 Siloam Road Pueblo CO 81007
DAY DREAMZ LLC,DAY DREAMZ,403-01438,"1805 Santa Fe Drive, Suites F & G",Pueblo,81006,Medical,"1805 Santa Fe Drive, Suites F & G Pueblo CO 81006"
HEAVYBAG SUPPLY COMPANY LLC,,403R-00352,521 SANTA FE DRIVE,Pueblo,81006,Retail,521 SANTA FE DRIVE Pueblo CO 81006
HERIKAT INC,ROSE BUD PRODUCTIONS,403-01435,2298 East State Highway 96,Pueblo,81006,Medical,2298 East State Highway 96 Pueblo CO 81006
LOS SUENOS LLC,,403R-00428,231 Nyberg Road,Pueblo,81006,Retail,231 Nyberg Road Pueblo CO 81006
MESA ORGANICS LTD,MESA ORGANICS/PURPLEBEES,403-01670,30899 Highway 50 East,Pueblo,81006,Medical,30899 Highway 50 East Pueblo CO 81006
PUEBLO AGRICULTURE LLC,,403R-00524,386 South 29th Lane,Pueblo,81006,Retail,386 South 29th Lane Pueblo CO 81006
WESTSIDE WELLNESS CENTER LLC,MAGGIE'S FARM,403-01557,"1400 Santa Fe Drive, Suite A & B",Pueblo,81006,Medical,"1400 Santa Fe Drive, Suite A & B Pueblo CO 81006"
A BETTER CHOICE LLC,O. G. HYDRO,403R-00496,1115 Siloam Road,Pueblo,81005,Retail,1115 Siloam Road Pueblo CO 81005
CGRO LLC,APEX ORGANICS,403R-00606,1930 Pope Valley Ranch Road,Pueblo,81005,Retail,1930 Pope Valley Ranch Road Pueblo CO 81005
COLORADO LEAF LLC,COLORADO LEAF LLC,403R-00508,8217 Red Creek Springs Road,Pueblo,81005,Retail,8217 Red Creek Springs Road Pueblo CO 81005
DKC LLC,DENVER KUSH CLUB,403R-00285,5 Rex Road,Pueblo,81005,Retail,5 Rex Road Pueblo CO 81005
DKC LLC,DENVER KUSH CLUB,403-01401,7415 Rex Road,Pueblo,81005,Medical,7415 Rex Road Pueblo CO 81005
HEALING HOUSE LAKEWOOD LLC,HEALING HOUSE,403R-00357,7420 Rex Road,Pueblo,81005,Retail,7420 Rex Road Pueblo CO 81005
HEALING HOUSE LAKEWOOD LLC,HEALING HOUSE,403-01446,"Lakeview Prairie, Lot 4",Pueblo,81005,Medical,"Lakeview Prairie, Lot 4 Pueblo CO 81005"
HIGH ALTITUDE FARMS LLC,,403R-00504,1035 Newton Road,Pueblo,81005,Retail,1035 Newton Road Pueblo CO 81005
KINGPIN FARMS LLC,,403R-00539,6427 Galbreth Road,Pueblo,81005,Retail,6427 Galbreth Road Pueblo CO 81005
MISFITS PHARMS LLC,,403R-00587,2405 Little Burnt Mill Road,Pueblo,81005,Retail,2405 Little Burnt Mill Road Pueblo CO 81005
PREMIUM CUT INC,PREMIUM CUT INC,403R-00417,5810 W State Highway 78,Pueblo,81005,Retail,5810 W State Highway 78 Pueblo CO 81005
STEEL CITY SUPPLY LLC,,403R-00529,7571 Vanessa Drive,Pueblo,81005,Retail,7571 Vanessa Drive Pueblo CO 81005
SUNSTRAIN LLC,,403R-00605,8380 West Highway 96,Pueblo,81005,Retail,8380 West Highway 96 Pueblo CO 81005
4th DIMENSION INC,,403R-00534,3144 Verde Road,Pueblo,81004,Retail,3144 Verde Road Pueblo CO 81004
DENVER BUD COMPANY LLC,DENVER BUD COMPANY,403R-00324,3217 Lake Ave,Pueblo,81004,Retail,3217 Lake Ave Pueblo CO 81004
EARTH SOLUTIONS INC,CANNA CABINET INC,403-01565,"2630 W. Pueblo Blvd., Suite C-D&E",Pueblo,81004,Medical,"2630 W. Pueblo Blvd., Suite C-D&E Pueblo CO 81004"
EXTREME GREEN GENETICS LLC,,403R-00375,3150 Verde Road,Pueblo,81004,Retail,3150 Verde Road Pueblo CO 81004
FREDRICK JENKINS LLC,MT GROWERS,403R-00583,705 Elm Street,Pueblo,81004,Retail,705 Elm Street Pueblo CO 81004
NATIONAL GREEN SOURCE LLC,,403R-00447,1900 South Freeway,Pueblo,81004,Retail,1900 South Freeway Pueblo CO 81004
SEVEN-ONE-NINE LLC,,403-01598,2729 Farabaugh Lane,Pueblo,81004,Medical,2729 Farabaugh Lane Pueblo CO 81004
GARDEN GREENS LLC,,403-01628,4116 Nature Center Road,Pueblo,81003,Medical,4116 Nature Center Road Pueblo CO 81003
GROWHOUSE PUEBLO LLC,,403R-00511,1325 Cheyenne Avenue,Pueblo,81003,Retail,1325 Cheyenne Avenue Pueblo CO 81003
JRM HOLDINGS INC,JRM HOLDINGS INC,403R-00519,4245 West 13th Street,Pueblo,81003,Retail,4245 West 13th Street Pueblo CO 81003
THE HERBAL GARDEN LLC,,403R-00370,302 Lamkin Street,Pueblo,81003,Retail,302 Lamkin Street Pueblo CO 81003
TWISTED ORGANICS LLC,TWISTED ORGANICS LLC,403R-00351,311 South Main Street,Pueblo,81003,Retail,311 South Main Street Pueblo CO 81003
GREEN MOUNTAIN DISTRIBUTION LLC,,403R-00422,302 Meade Avenue,Pueblo,81001,Retail,302 Meade Avenue Pueblo CO 81001
HERIKAT INC,ROSE BUD PRODUCTIONS,403R-00261,2298 East State Hwy 96,Pueblo,81001,Retail,2298 East State Hwy 96 Pueblo CO 81001
MAGGIES FARM LLC,,403R-00290,3900 North 27th Lane,Pueblo,81001,Retail,3900 North 27th Lane Pueblo CO 81001
MARISOL THERAPEUTICS LLC,,403R-00079,2204 Hickory Lane,Pueblo,81001,Retail,2204 Hickory Lane Pueblo CO 81001
MARISOL THERAPEUTICS LLC,,403-00254,2204 Hickory Street,Pueblo,81001,Medical,2204 Hickory Street Pueblo CO 81001
PURE INDUSTRIES LLC,,403R-00409,1601 N. Erie Avenue,Pueblo,81001,Retail,1601 N. Erie Avenue Pueblo CO 81001
ROCKY ROAD REMEDIES LLC,ROCKY ROAD PUEBLO,403R-00300,2656 McCormick Avenue,Pueblo,81001,Retail,2656 McCormick Avenue Pueblo CO 81001
HOBBY FARMS LLC,A CUT ABOVE,403-00687,3410 Astrozon Court,Colorado Springs,80937,Medical,3410 Astrozon Court Colorado Springs CO 80937
BGOOD VENTURES LLC,ELEVATIONS,403-01660,8270 Razorback Road,Colorado Springs,80920,Medical,8270 Razorback Road Colorado Springs CO 80920
AJC INDUSTRIES LLC,FRONT RANGE ALTERNATIVE MEDICINES,403-00585,5905 North Nevada Avenue,Colorado Springs,80918,Medical,5905 North Nevada Avenue Colorado Springs CO 80918
BRIARGATE WELLNESS CENTER LLC,,403-00176,"890 Dublin Boulevard, Suite C",Colorado Springs,80918,Medical,"890 Dublin Boulevard, Suite C Colorado Springs CO 80918"
THIRD DAY APOTHECARY MC LLC,,403-00210,"4865 North Academy Blvd., Unit B",Colorado Springs,80918,Medical,"4865 North Academy Blvd., Unit B Colorado Springs CO 80918"
ROCKY ROAD REMEDIES LLC,ROCKY ROAD NORTH,403-01303,3995 North Academy Boulevard,Colorado Springs,80917,Medical,3995 North Academy Boulevard Colorado Springs CO 80917
TRICHOME HEALTH CONSULTANTS,TRICHOME HEALTH CONSULTANTS,403-00349,"3425 Van Teylingen Drive, Units D&E",Colorado Springs,80917,Medical,"3425 Van Teylingen Drive, Units D&E Colorado Springs CO 80917"
CYS INC,,403-01345,1675 Jetwing Drive,Colorado Springs,80916,Medical,1675 Jetwing Drive Colorado Springs CO 80916
CANNA MEDS WELLNESS CENTER LLC,,403-00407,4349 East Platte Avenue,Colorado Springs,80915,Medical,4349 East Platte Avenue Colorado Springs CO 80915
CANNABICARE INC,THE CARE,403-00157,1466 Woolsey Heights,Colorado Springs,80915,Medical,1466 Woolsey Heights Colorado Springs CO 80915
CC GROUP,CANNA CAREGIVERS,403-00370,2153-2155 Victor Place,Colorado Springs,80915,Medical,2153-2155 Victor Place Colorado Springs CO 80915
CC GROUP,CANNA CREATIONS,403-01329,"2306 North Powers Boulevard, #100",Colorado Springs,80915,Medical,"2306 North Powers Boulevard, #100 Colorado Springs CO 80915"
DR RELEAF INC,,403-01571,815 Wooten Road,Colorado Springs,80915,Medical,815 Wooten Road Colorado Springs CO 80915
HAPPY BUDDHA WELLNESS CENTER LLC,,403-01164,1419 Woolsey Heights,Colorado Springs,80915,Medical,1419 Woolsey Heights Colorado Springs CO 80915
HOBBY FARMS LLC,A CUT ABOVE,403-01596,817 Wooten Road,Colorado Springs,80915,Medical,817 Wooten Road Colorado Springs CO 80915
HOSHTA LLC,NEW HORIZONS,403-01183,1460 Woolsey Heights,Colorado Springs,80915,Medical,1460 Woolsey Heights Colorado Springs CO 80915
HUMBOLDT CARE AND WELLNESS CENTER LLC,NEW AGE MEDICAL,403-00882,1453 Woolsey Heights,Colorado Springs,80915,Medical,1453 Woolsey Heights Colorado Springs CO 80915
NATURES WAY WELLNESS CENTER INC,HIGH COUNTRY HEALING,403-00690,"2815 North El Paso Street Units A, C & D",Colorado Springs,80915,Medical,"2815 North El Paso Street Units A, C & D Colorado Springs CO 80915"
TODAYS HEALTH CARE II LLC,,403-00433,6345 East Platte Avenue,Colorado Springs,80915,Medical,6345 East Platte Avenue Colorado Springs CO 80915
BIG MEDICINE LLC,BIG MEDICINE CANNABISSARY,403-01617,"2565 Weston Road, Unit 136",Colorado Springs,80910,Medical,"2565 Weston Road, Unit 136 Colorado Springs CO 80910"
BND LLC,A CUT ABOVE,403-01616,3758 #B Astrozon Boulevard,Colorado Springs,80910,Medical,3758 #B Astrozon Boulevard Colorado Springs CO 80910
C^3 COLORADO SPRINGS LLC,PURE INTENTIONS WELLNESS CENTER,403-01029,"2517 Airport Road, Unit B,",Colorado Springs,80910,Medical,"2517 Airport Road, Unit B, Colorado Springs CO 80910"
CLINIC 5280,CLINIC 5280,403-01606,1752 Shasta Drive,Colorado Springs,80910,Medical,1752 Shasta Drive Colorado Springs CO 80910
DISCREET TREATS LLC,,403-01280,"288 South Academy Boulevard, Suite C",Colorado Springs,80910,Medical,"288 South Academy Boulevard, Suite C Colorado Springs CO 80910"
EMERALD CITY WELLNESS LLC,EMERALD CITY WELLNESS,403-01167,2565 Weston Road Units 128 Collective,Colorado Springs,80910,Medical,2565 Weston Road Units 128 Collective Colorado Springs CO 80910
FOUR SCORE LLC,DISCREET TREATS,403-01210,"288 South Academy Boulevard, Unit C",Colorado Springs,80910,Medical,"288 South Academy Boulevard, Unit C Colorado Springs CO 80910"
FRANKS FARM LLC,FRANK'S FARM,403-01612,715 South Circle Drive,Colorado Springs,80910,Medical,715 South Circle Drive Colorado Springs CO 80910
GARDEN MC LLC,GARDEN MC,403-01652,17-19 Iowa Avenue,Colorado Springs,80910,Medical,17-19 Iowa Avenue Colorado Springs CO 80910
JP LABS LLC,,403-01526,"288 South Academy, Suite B",Colorado Springs,80910,Medical,"288 South Academy, Suite B Colorado Springs CO 80910"
JP WELLNESS LLC,,403-01209,"296 South Academy Boulevard, Suite L",Colorado Springs,80910,Medical,"296 South Academy Boulevard, Suite L Colorado Springs CO 80910"
MODERN MEDICINE LLC,ALTITUDE ORGANIC MEDICINE,403-00640,2517 Durango Drive,Colorado Springs,80910,Medical,2517 Durango Drive Colorado Springs CO 80910
PRISY & ASSOCIATES LLC,WELLSTONE,403-00125,2685 Durango Drive,Colorado Springs,80910,Medical,2685 Durango Drive Colorado Springs CO 80910
ROCKY ROAD REMEDIES LLC,,403-00444,2575 Weston Road,Colorado Springs,80910,Medical,2575 Weston Road Colorado Springs CO 80910
SLAM ENTERPRISES LLC,NATURALEAF,403-00796,2611 Durango Drive,Colorado Springs,80910,Medical,2611 Durango Drive Colorado Springs CO 80910
TZ FINANCIAL LLC,HIGH COUNTRY HEALING,403-00335,2516 Weston Road,Colorado Springs,80910,Medical,2516 Weston Road Colorado Springs CO 80910
WTJ FAMILY ENTERPRISES LLC,WTJ MMJ SUPPLY,403-00239,2848 Delta Drive,Colorado Springs,80910,Medical,2848 Delta Drive Colorado Springs CO 80910
AUGUST MOON LLC,AUGUST KITCHEN,403-01646,3228 East Platte Avenue,Colorado Springs,80909,Medical,3228 East Platte Avenue Colorado Springs CO 80909
BEST BUDZ LLC,BEST BUDZ,403-00610,2545 & 2547 East Platte Place,Colorado Springs,80909,Medical,2545 & 2547 East Platte Place Colorado Springs CO 80909
BIJOU WELLNESS CENTER LLC,,403-00839,"2132 East Bijou Street, Suites 110, 111, 119 & 124",Colorado Springs,80909,Medical,"2132 East Bijou Street, Suites 110, 111, 119 & 124 Colorado Springs CO 80909"
COLORADO WHOLESALE DISTRIBUTION LLC,,403-01467,2211 East Boulder Street,Colorado Springs,80909,Medical,2211 East Boulder Street Colorado Springs CO 80909
DR RELEAF INC,DR. RELEAF INC,403-01366,2639 East Willamette Avenue,Colorado Springs,80909,Medical,2639 East Willamette Avenue Colorado Springs CO 80909
EAST WEST ALTERNATIVE MEDICINE LLC,,403-00754,"1905 North Academy Boulevard, Suite 100",Colorado Springs,80909,Medical,"1905 North Academy Boulevard, Suite 100 Colorado Springs CO 80909"
ELEVATED EXTRACTIONS LLC,,403-01479,325 Delaware Drive,Colorado Springs,80909,Medical,325 Delaware Drive Colorado Springs CO 80909
EZ NATURAL ALTERNATIVES LLC,HERBS PLACE,403-01048,"3475 Pine Tree Square, Suite E",Colorado Springs,80909,Medical,"3475 Pine Tree Square, Suite E Colorado Springs CO 80909"
GAME 7 LLC,PINK HOUSE COLORADO SPRINGS,403-00803,700 Juanita Street,Colorado Springs,80909,Medical,700 Juanita Street Colorado Springs CO 80909
GOLDEN BARN LLC,,403-01449,3601 East Platte Avenue,Colorado Springs,80909,Medical,3601 East Platte Avenue Colorado Springs CO 80909
H & M ENTERPRISE LLC,MEDICAL CANNABIS & PARTNERS LLC,403-01575,"335 North Circle Drive, Suite 101 & 201",Colorado Springs,80909,Medical,"335 North Circle Drive, Suite 101 & 201 Colorado Springs CO 80909"
H & M ENTERPRISE LLC,MEDICAL CANNABIS & PARTNERS LLC,403-01574,"335 North Circle Drive, Unit 201 & 101",Colorado Springs,80909,Medical,"335 North Circle Drive, Unit 201 & 101 Colorado Springs CO 80909"
HERBAL HEALING LLC,DANK BANK,403-01497,"1785 North Academy Boulevard, #165",Colorado Springs,80909,Medical,"1785 North Academy Boulevard, #165 Colorado Springs CO 80909"
HIGHER HEALING LLC,HIGHER HEALING,403-01559,"1785 North Academy Blvd., Unit 160",Colorado Springs,80909,Medical,"1785 North Academy Blvd., Unit 160 Colorado Springs CO 80909"
KIND THERAPEUTICS INC,,403-00616,4058 Palmer Park Boulevard,Colorado Springs,80909,Medical,4058 Palmer Park Boulevard Colorado Springs CO 80909
MYLAR GROUP LLC,,403-00530,2430 Platte Place,Colorado Springs,80909,Medical,2430 Platte Place Colorado Springs CO 80909
ORIGINAL CANNABIS GROWERS LLC,,403-00133,"2625 East Street Vrain, Units A, B, C & D",Colorado Springs,80909,Medical,"2625 East Street Vrain, Units A, B, C & D Colorado Springs CO 80909"
PAIN MANAGEMENT SOLUTIONS LLC,,403-01472,2222 East Boulder Street,Colorado Springs,80909,Medical,2222 East Boulder Street Colorado Springs CO 80909
QUALITY CHOICE ALTERNATIVE CARE CENTER,,403-01541,2390 East Boulder Street,Colorado Springs,80909,Medical,2390 East Boulder Street Colorado Springs CO 80909
QUALITY CHOICE ALTERNATIVE CARE CENTER LLC,QUALITY CHOICE,403-00086,2398 East Boulder Street,Colorado Springs,80909,Medical,2398 East Boulder Street Colorado Springs CO 80909
ROCKY MOUNTAIN MEDICAL LLC,,403-01005,616 Arrawanna Street,Colorado Springs,80909,Medical,616 Arrawanna Street Colorado Springs CO 80909
ROCKY MOUNTAIN MIRACLES LLC,,403-00316,2316 East Bijou Street,Colorado Springs,80909,Medical,2316 East Bijou Street Colorado Springs CO 80909
SDJ LLC,WP NATION,403-01649,"2509 Platte Place, Suite A",Colorado Springs,80909,Medical,"2509 Platte Place, Suite A Colorado Springs CO 80909"
STAINED GLASS INCORPORATED,,403-01624,123 North Union Boulevard,Colorado Springs,80909,Medical,123 North Union Boulevard Colorado Springs CO 80909
THE CANNABLISS COMPANY LLC,THE CANNABLISS COMPANY LLC,403-01475,"1785 North Academy Boulevard, Unit 100",Colorado Springs,80909,Medical,"1785 North Academy Boulevard, Unit 100 Colorado Springs CO 80909"
THE HEALING CANNA LLC,,403-00867,319 Iowa Avenue,Colorado Springs,80909,Medical,319 Iowa Avenue Colorado Springs CO 80909
THE HEALING CANNA LLC,,403-00866,3692 East Bijou Street,Colorado Springs,80909,Medical,3692 East Bijou Street Colorado Springs CO 80909
THE ORGANIC SEED LLC,CANNASSEUR,403-00584,2304 East Platte Avenue,Colorado Springs,80909,Medical,2304 East Platte Avenue Colorado Springs CO 80909
WELLNESS CENTERS OF COLORADO LLC,A-WELLNESS CENTER,403-00756,2599 East Willamette Avenue,Colorado Springs,80909,Medical,2599 East Willamette Avenue Colorado Springs CO 80909
ACME SMOKE LLC,MEDICAL TENT,403-00575,1202 East Fillmore Street,Colorado Springs,80907,Medical,1202 East Fillmore Street Colorado Springs CO 80907
AMERICAN WELLNESS CENTER LLC,,403-01230,3895 North Cascade Avenue,Colorado Springs,80907,Medical,3895 North Cascade Avenue Colorado Springs CO 80907
AMERIGREEN OF COLORADO SPRINGS ILCT LLC,THE AMERIGREEN COMPANY,403-00523,905 East Fillmore Street,Colorado Springs,80907,Medical,905 East Fillmore Street Colorado Springs CO 80907
BEST BUDZ LLC,,403-01583,3850 North Nevada,Colorado Springs,80907,Medical,3850 North Nevada Colorado Springs CO 80907
BIG MEDICINE LLC,BIG MEDICINE CANNABISSARY,403-01464,2909 North El Paso Street,Colorado Springs,80907,Medical,2909 North El Paso Street Colorado Springs CO 80907
BND LLC,A CUT ABOVE,403-00527,2809 North Prospect Street,Colorado Springs,80907,Medical,2809 North Prospect Street Colorado Springs CO 80907
CANNABICARE INC,THE CARE,403-01378,3512 North Tejon Street,Colorado Springs,80907,Medical,3512 North Tejon Street Colorado Springs CO 80907
CANNABIS CONNECTION LLC,CANNABIS CONNECTION,403-01611,3170 North Stone Avenue,Colorado Springs,80907,Medical,3170 North Stone Avenue Colorado Springs CO 80907
DANKERT CAPITAL LLC,THE DANKERY,403-01638,3745 Interpark Drive,Colorado Springs,80907,Medical,3745 Interpark Drive Colorado Springs CO 80907
ERINCARE LLC,THE TREEHOUSE,403-00524,34 Buchanan Street,Colorado Springs,80907,Medical,34 Buchanan Street Colorado Springs CO 80907
G AND D EQUITY VISION LLC,,403-01496,"3106 North Stone Avenue, Unit A",Colorado Springs,80907,Medical,"3106 North Stone Avenue, Unit A Colorado Springs CO 80907"
HIGH MOUNTAIN MEDZ LLC,LEVITY WELLNESS,403-00365,3110 North Stone,Colorado Springs,80907,Medical,3110 North Stone Colorado Springs CO 80907
MEDIBIS LLC,,403-01185,3701 North Nevada Avenue,Colorado Springs,80907,Medical,3701 North Nevada Avenue Colorado Springs CO 80907
MILE HIGH REMEDIES LLC,DOCTOR'S ORDERS,403-00973,2805 North Prospect Street,Colorado Springs,80907,Medical,2805 North Prospect Street Colorado Springs CO 80907
MODERN MEDICINE LLC,ALTITUDE ORGANIC MEDICINE,403-01510,2903 North Prospect Drive,Colorado Springs,80907,Medical,2903 North Prospect Drive Colorado Springs CO 80907
NATURES WAY WELLNESS CENTER INC,HIGH COUNTRY HEALING,403-01412,2815 North El Paso Street,Colorado Springs,80907,Medical,2815 North El Paso Street Colorado Springs CO 80907
P2C3 LLC,THE SECRET STASH,403-01300,3286 North El Paso Street,Colorado Springs,80907,Medical,3286 North El Paso Street Colorado Springs CO 80907
PIKES PEAK SALES & SUPPLY LLC,THE CROWN,403-01610,115 East Garden of the Gods Road,Colorado Springs,80907,Medical,115 East Garden of the Gods Road Colorado Springs CO 80907
PND LLC,A CUT ABOVE,403-00529,3435 Fillmore Ridge Heights,Colorado Springs,80907,Medical,3435 Fillmore Ridge Heights Colorado Springs CO 80907
SOUTHERN COLORADO MEDICAL MARIJUANA LLC,SOCO MMJ LLC,403-00719,3410 North Prospect Street,Colorado Springs,80907,Medical,3410 North Prospect Street Colorado Springs CO 80907
THE GREEN HOUSE INC,,403-01428,3214 North Nevada Avenue,Colorado Springs,80907,Medical,3214 North Nevada Avenue Colorado Springs CO 80907
THE GREEN HOUSE INC,,403-00079,3228 North Nevada Avenue,Colorado Springs,80907,Medical,3228 North Nevada Avenue Colorado Springs CO 80907
TINCTUREBELLE LLC,,403-01339,"62 Mount View Lane, Units D&E",Colorado Springs,80907,Medical,"62 Mount View Lane, Units D&E Colorado Springs CO 80907"
TRICHOME HEALTH CONSULTANTS,TRICHOME HEALTH CONSULTANTS,403-00344,"3120 Beacon Street, Unit I",Colorado Springs,80907,Medical,"3120 Beacon Street, Unit I Colorado Springs CO 80907"
WELLNESS CENTERS OF COLORADO LLC,A-WELLNESS CENTER,403-00755,2926 Wood Avenue,Colorado Springs,80907,Medical,2926 Wood Avenue Colorado Springs CO 80907
WESTSIDE WELLNESS CENTER LLC,"MAGGIE'S FARM, LLC",403-00358,818 East Filmore Street,Colorado Springs,80907,Medical,818 East Filmore Street Colorado Springs CO 80907
WHITE MOUNTAIN MEDICINE LLC,LIVWELL,403-01274,3234 North Nevada Avenue,Colorado Springs,80907,Medical,3234 North Nevada Avenue Colorado Springs CO 80907
ENLIGHTENED CARE PLUS LLC,ENLIGHTENED CARE PLUS LLC,403-01622,1609 South Nevada Avenue,Colorado Springs,80906,Medical,1609 South Nevada Avenue Colorado Springs CO 80906
HEAVENLY MEDICAL INC,HEAVENLY MEDICAL CAREGIVER,403-01319,2130 Reliable Circle,Colorado Springs,80906,Medical,2130 Reliable Circle Colorado Springs CO 80906
MEDICAL CANNABIS CAREGIVERS INC,MC CAREGIVERS,403-00070,1831 Mount Washington Avenue,Colorado Springs,80906,Medical,1831 Mount Washington Avenue Colorado Springs CO 80906
ARTISTANT DISPENSARY CENTER INC,LIVWELL,403-00319,1414 South Tejon Street,Colorado Springs,80905,Medical,1414 South Tejon Street Colorado Springs CO 80905
BIOMEDS LLC,BIOMEDS,403-01549,2301 Rand Avenue,Colorado Springs,80905,Medical,2301 Rand Avenue Colorado Springs CO 80905
CLINIC 5280,,403-01315,"1629 South Nevada Avenue, Suite 120",Colorado Springs,80905,Medical,"1629 South Nevada Avenue, Suite 120 Colorado Springs CO 80905"
COMPLIANCE INITIATIVES LLC,STRAWBERRY FIELDS ALTERNATIVE HEALTH AND WELLNESS,403-00250,1440 Pando Avenue,Colorado Springs,80905,Medical,1440 Pando Avenue Colorado Springs CO 80905
GROW LIFE LLC,,403-00204,1516 Dustry Drive,Colorado Springs,80905,Medical,1516 Dustry Drive Colorado Springs CO 80905
MODERN MEDICINE LLC,ALTITUDE ORGANIC MEDICINE,403-01615,2903 North Prospect Street,Colorado Springs,80905,Medical,2903 North Prospect Street Colorado Springs CO 80905
MOUNTAIN MED CLUB LLC,,403-00148,20 South Chestnut Street,Colorado Springs,80905,Medical,20 South Chestnut Street Colorado Springs CO 80905
PURE MEDICAL LLC,,403-00517,2125 Busch Avenue,Colorado Springs,80905,Medical,2125 Busch Avenue Colorado Springs CO 80905
TRICHOME HEALTH CONSULTANTS,TRICHOME HEALTH CONSULTANTS,403-00342,135 East Brookside,Colorado Springs,80905,Medical,135 East Brookside Colorado Springs CO 80905
ADVANCE CURE FOR VERA BESTURA LLC,HERBAN FARMER LLC,403-01195,"2755 Ore Mill Road, Units 13 & 14",Colorado Springs,80904,Medical,"2755 Ore Mill Road, Units 13 & 14 Colorado Springs CO 80904"
COMPLIANCE INITIATIVES LLC,STRAWBERRY FIELDS ALTERNATIVE HEALTH AND WELLNESS,403-00248,"2755 Ore Mill Road, Units 17/18",Colorado Springs,80904,Medical,"2755 Ore Mill Road, Units 17/18 Colorado Springs CO 80904"
CROSSPOINT 3132 LLC,CROSSPOINT MEDICAL CENTER,403-00387,3132 West Colorado Avenue,Colorado Springs,80904,Medical,3132 West Colorado Avenue Colorado Springs CO 80904
GARDEN OF THE BUDZ LLC,GARDEN OF THE BUDZ,403-01667,3178 West Colorado Avenue,Colorado Springs,80904,Medical,3178 West Colorado Avenue Colorado Springs CO 80904
GREEN AND HEALTHY WELLNESS LLC,GREEN AND HEALTHY WELLNESS,403-00659,212 South 21st Street,Colorado Springs,80904,Medical,212 South 21st Street Colorado Springs CO 80904
LUX INC,THE LUX LEAF,403-01672,2222 West Colorado Avenue,Colorado Springs,80904,Medical,2222 West Colorado Avenue Colorado Springs CO 80904
THE HERB SHOPPE LLC,THE HERB SHOPPE,403-01132,"3020 West Colorado Avenue, Suite C",Colorado Springs,80904,Medical,"3020 West Colorado Avenue, Suite C Colorado Springs CO 80904"
TRICHOME HEALTH CONSULTANTS,TRICHOME HEALTH CONSULTANTS,403-00347,2117 West Colorado Avenue,Colorado Springs,80904,Medical,2117 West Colorado Avenue Colorado Springs CO 80904
TRICHOME HEALTH CONSULTANTS,TRICHOME HEALTH CONSULTANTS,403-00341,"2285 Busch Avenue, Unit 2",Colorado Springs,80904,Medical,"2285 Busch Avenue, Unit 2 Colorado Springs CO 80904"
TRICHOME HEALTH CONSULTANTS,TRICHOME HEALTH CONSULTANTS,403-00346,"2295 Busch Avenue, Unit 3",Colorado Springs,80904,Medical,"2295 Busch Avenue, Unit 3 Colorado Springs CO 80904"
COLORADO SPRINGS MEDICAL GROUP LLC,TREE OF WELLNESS II,403-01603,705 North Nevada Avenue,Colorado Springs,80903,Medical,705 North Nevada Avenue Colorado Springs CO 80903
ENLIGHTENED CARE LLC,HIGH COUNTRY HEALING 4,403-00862,112-114 South Corona Street,Colorado Springs,80903,Medical,112-114 South Corona Street Colorado Springs CO 80903
MARI MEDS INC,,403-00093,222 East Moreno Avenue,Colorado Springs,80903,Medical,222 East Moreno Avenue Colorado Springs CO 80903
MARI MEDS INC,MARI MEDS,403-01650,223 East Moreno Avenue,Colorado Springs,80903,Medical,223 East Moreno Avenue Colorado Springs CO 80903
NATURAL MYSTIC CANNABIS CAREGIVERS LLC,,403-00043,"416 East Colorado Avenue, Suite 101",Colorado Springs,80903,Medical,"416 East Colorado Avenue, Suite 101 Colorado Springs CO 80903"
PAIN MANAGEMENT SOLUTIONS LLC,,403-00164,1022 South Royer Street,Colorado Springs,80903,Medical,1022 South Royer Street Colorado Springs CO 80903
PURE MEDICAL LLC,,403-00519,398 South Forty Road,Woodland Park,80863,Medical,398 South Forty Road Woodland Park CO 80863
TOTANKA LLC,,403R-00377,8768 County Road 90,Lake George,80827,Retail,8768 County Road 90 Lake George CO 80827
INDY 2 LLC,INDISPENSARY,403-00810,3721 Wildhorn Road,Florissant,80816,Medical,3721 Wildhorn Road Florissant CO 80816
J & J MOUNTAIN MEDICALS LLC,,403-00871,"11505 US Highway 24 West, Unit 16",Divide,80814,Medical,"11505 US Highway 24 West, Unit 16 Divide CO 80814"
EAGLES NEST WELLNESS CENTER,,403-00399,8455 West Highway 24,Cascade,80809,Medical,8455 West Highway 24 Cascade CO 80809
LARSEN GROUP II LLC,,403R-00580,206 Elm Drive,Log Lane Village,80705,Retail,206 Elm Drive Log Lane Village CO 80705
NATURES HERBS & WELLNESS CENTER II,,403-01538,17216 North Frontage Road,Log Lane Village,80705,Medical,17216 North Frontage Road Log Lane Village CO 80705
LIVWELL I LLC,LIVWELL,403-00894,"2647 8th Avenue, Unit B",Garden City,80631,Medical,"2647 8th Avenue, Unit B Garden City CO 80631"
NATURES HERBS & WELLNESS CENTER,,403-00085,522 27th Street,Garden City,80631,Medical,522 27th Street Garden City CO 80631
NATURES HERBS & WELLNESS CENTER,,403R-00066,540 27th Street,Garden City,80631,Retail,540 27th Street Garden City CO 80631
XG PLATINUM CORPORATION,,403R-00160,2506 6th Avenue,Garden City,80631,Retail,2506 6th Avenue Garden City CO 80631
ST VRAIN INDUSTRIES LLC,LYONS FIRE,403R-00532,1040 5th Avenue,Lyons,80540,Retail,1040 5th Avenue Lyons CO 80540
COLORADO HEALING LLC,HEADQUARTERS,403-01515,"5739 Bueno Drive, Suite C-2 & D-2",Fort Collins,80525,Medical,"5739 Bueno Drive, Suite C-2 & D-2 Fort Collins CO 80525"
COLORADO HEALING LLC,HEADQUARTERS,403-01514,"5739 Bueno Drive, Suites A & B",Fort Collins,80525,Medical,"5739 Bueno Drive, Suites A & B Fort Collins CO 80525"
KIND CARE OF COLORADO LLC,,403-01294,6617 South College Avenue,Fort Collins,80525,Medical,6617 South College Avenue Fort Collins CO 80525
SOLACE MEDS LLC,SOLACE MEDS LLC,403R-00317,"301 Smokey Street, Unit B",Fort Collins,80525,Retail,"301 Smokey Street, Unit B Fort Collins CO 80525"
CHOICE ORGANICS INC,,403-00211,"813 Smithfield Drive, Suites A & B",FORT COLLINS,80524,Medical,"813 Smithfield Drive, Suites A & B FORT COLLINS CO 80524"
CHOICE ORGANICS INC,,403R-00038,"813 Smithfield Drive, Units C & D",Fort Collins,80524,Retail,"813 Smithfield Drive, Units C & D Fort Collins CO 80524"
FLOWER POWER BOTANICALS LLC,,403-00825,1308 - 1310 Duff Drive,Fort Collins,80524,Medical,1308 - 1310 Duff Drive Fort Collins CO 80524
FLOWER POWER BOTANICALS LLC,,403R-00199,1308 -1310 Duff Drive,Fort Collins,80524,Retail,1308 -1310 Duff Drive Fort Collins CO 80524
GREEN MEADOWS WELLNESS LLC,INFINITE WELLNESS CENTER,403-01291,"1717 Willox Court, Unit B",Fort Collins,80524,Medical,"1717 Willox Court, Unit B Fort Collins CO 80524"
JDC LLC,A KIND PLACE,403-01318,938 North College Avenue,Fort Collins,80524,Medical,938 North College Avenue Fort Collins CO 80524
MEDICAL MJ SUPPLY LLC,BEST COLORADO MEDS.ORG,403R-00610,"120 Hemlock Street, Suite 110",Fort Collins,80524,Retail,"120 Hemlock Street, Suite 110 Fort Collins CO 80524"
MEDICAL MJ SUPPLY LLC,BEST COLORADO MEDS,403-01424,"120 Hemlock, Units 110 & 120",Fort Collins,80524,Medical,"120 Hemlock, Units 110 & 120 Fort Collins CO 80524"
MEDICAL MJ SUPPLY LLC,BEST COLORADO MEDS,403-01292,810 North College Avenue,Fort Collins,80524,Medical,810 North College Avenue Fort Collins CO 80524
NATURAL ALTERNATIVES FOR HEALTH LLC,,403-01405,"1420 Blue Spruce Drive, Unit H",Fort Collins,80524,Medical,"1420 Blue Spruce Drive, Unit H Fort Collins CO 80524"
NATURAL ALTERNATIVES FOR HEALTH LLC,NATURAL ALTERNATIVES FOR HEALTH,403R-00568,"1420 Blue Spruce Lane, Unit H",Fort Collins,80524,Retail,"1420 Blue Spruce Lane, Unit H Fort Collins CO 80524"
SOLACE MEDS LLC,,403-01418,1736-1740 Willox Court,Fort Collins,80524,Medical,1736-1740 Willox Court Fort Collins CO 80524
VERTS LLC,VERTICAL,403-01293,"120 West Hemlock Street, Units 130 & 140",Fort Collins,80524,Medical,"120 West Hemlock Street, Units 130 & 140 Fort Collins CO 80524"
ACES PLACE LLC,,403-01463,"120 Hemlock, Unit 150",Fort Collins,80521,Medical,"120 Hemlock, Unit 150 Fort Collins CO 80521"
GREEN MEADOWS WELLNESS LLC,INFINITE WELLNESS CENTER,403R-00311,900 North College Avenue,Fort Collins,80521,Retail,900 North College Avenue Fort Collins CO 80521
NATURAL ALTERNATIVES FOR LIFE LLC,GREEN TREE MEDICINALS,403-01331,1090 North 2nd Street,Berthoud,80513,Medical,1090 North 2nd Street Berthoud CO 80513
D and C MEDICAL MARIJUANA LLC,GOLDEN LEAF,403R-00225,2052 Snow Bowl Plaza,Steamboat Springs,80487,Retail,2052 Snow Bowl Plaza Steamboat Springs CO 80487
D and C MEDICAL MARIJUANA LLC,GOLDEN LEAF,403-01426,"2730 Downhill Drive, #103",Steamboat Springs,80487,Medical,"2730 Downhill Drive, #103 Steamboat Springs CO 80487"
D and C MEDICAL MARIJUANA LLC,GOLDEN LEAF,403-01453,"2800 Down Hill Plaza, Units 303 & 304",Steamboat Springs,80487,Medical,"2800 Down Hill Plaza, Units 303 & 304 Steamboat Springs CO 80487"
NATURAL CHOICE CO-OP,NATURAL CHOICE,403R-00168,1707 Copper Ridge Spur,Steamboat Springs,80487,Retail,1707 Copper Ridge Spur Steamboat Springs CO 80487
NATURAL CHOICE CO-OP,,403-01178,"2835 Downhill Plaza, Unit 603",Steamboat Springs,80487,Medical,"2835 Downhill Plaza, Unit 603 Steamboat Springs CO 80487"
RK ENTERPRISES LTD,ROCKY MOUNTAIN REMEDIES,403R-00179,"2005 13th Street, Lower Unit D",Steamboat Springs,80487,Retail,"2005 13th Street, Lower Unit D Steamboat Springs CO 80487"
RK ENTERPRISES LTD,ROCKY MOUNTAIN REMEDIES,403-00117,"2005 13th, Lower Unit D",Steamboat Springs,80487,Medical,"2005 13th, Lower Unit D Steamboat Springs CO 80487"
RK ENTERPRISES LTD,ROCKY MOUNTAIN REMEDIES,403R-00178,"2750 Downhill Plaza, #204",Steamboat Springs,80487,Retail,"2750 Downhill Plaza, #204 Steamboat Springs CO 80487"
RK ENTERPRISES LTD,ROCKY MOUNTAIN REMEDIES,403R-00180,"2750 Downhill Plaza, #206",Steamboat Springs,80487,Retail,"2750 Downhill Plaza, #206 Steamboat Springs CO 80487"
RK ENTERPRISES LTD,ROCKY MOUNTAIN REMEDIES,403-00120,"2750 Downhill Plaza, Unit 204",Steamboat Springs,80487,Medical,"2750 Downhill Plaza, Unit 204 Steamboat Springs CO 80487"
RK ENTERPRISES LTD,ROCKY MOUNTAIN REMEDIES,403-01311,"2750 Downhill Plaza, Unit 206",Steamboat Springs,80487,Medical,"2750 Downhill Plaza, Unit 206 Steamboat Springs CO 80487"
RK ENTERPRISES LTD,ROCKY MOUNTAIN REMEDIES,403R-00177,"2835 Downhill Plaza, #601",Steamboat Springs,80487,Retail,"2835 Downhill Plaza, #601 Steamboat Springs CO 80487"
RK ENTERPRISES LTD,ROCKY MOUNTAIN REMEDIES,403-00118,"2835 Downhill Plaza, Unit 601",Steamboat Springs,80487,Medical,"2835 Downhill Plaza, Unit 601 Steamboat Springs CO 80487"
RK ENTERPRISES LTD,ROCKY MOUNTAIN REMEDIES,403R-00398,"2835 Downhill Plaza, Unit 605",Steamboat Springs,80487,Retail,"2835 Downhill Plaza, Unit 605 Steamboat Springs CO 80487"
RK ENTERPRISES LTD,ROCKY MOUNTAIN REMEDIES,403-01480,"2835 Downhill Plaze, Unit 605",Steamboat Springs,80487,Medical,"2835 Downhill Plaze, Unit 605 Steamboat Springs CO 80487"
ANTS ORGANIC LLC,,403R-00485,231 Arthur Avenue,Oak Creek,80467,Retail,231 Arthur Avenue Oak Creek CO 80467
CRAIG APOTHECARY,,403-00831,"240 Arthur Avenue, Suite A",Oak Creek,80467,Medical,"240 Arthur Avenue, Suite A Oak Creek CO 80467"
CRESTED BUTTE WELLNESS CENTER LLC,,403R-00302,240 Arthur Avenue,Oak Creek,80467,Retail,240 Arthur Avenue Oak Creek CO 80467
PARK RANGE RECREATIONALS LLC,,403R-00325,"100 West Main Street, # B",Oak Creek,80467,Retail,"100 West Main Street, # B Oak Creek CO 80467"
TONKA CONSTRUCTION LLC,TONKA CONSTRUCTION LLC,403R-00381,224 Arthur Avenue,Oak Creek,80467,Retail,224 Arthur Avenue Oak Creek CO 80467
APEX INDUSTRIES INC,HARVEST HOUSE,403R-00468,211 Highway 119,Nederland,80466,Retail,211 Highway 119 Nederland CO 80466
THE FLOWER COLLECTIVE LTD,,403R-00361,91 Big Springs Drive,Nederland,80466,Retail,91 Big Springs Drive Nederland CO 80466
ELEVATED QUALITY WHOLESALE LLC,,403R-00562,210 East 10th Street,Leadville,80461,Retail,210 East 10th Street Leadville CO 80461
JEM DUTCH ACRES LLC,CLOUD CITY COMPASSIONATE CARE,403R-00142,1900 County Road 8,Leadville,80461,Retail,1900 County Road 8 Leadville CO 80461
JEM DUTCH ACRES LLC,EARL'S,403R-00509,"1940 County Road 8, Unit A",Leadville,80461,Retail,"1940 County Road 8, Unit A Leadville CO 80461"
RFSCLVG LLC,,403R-00407,145 Front Street,Leadville,80461,Retail,145 Front Street Leadville CO 80461
SIPES MOUNTAIN TRADERS LLC,NATURE'S SPIRIT,403R-00223,11976 Highway 24 South,Leadville,80461,Retail,11976 Highway 24 South Leadville CO 80461
TWO DOG PRODUCTS LLC,,403R-00341,"615 South Highway 24, Unit D",Leadville,80461,Retail,"615 South Highway 24, Unit D Leadville CO 80461"
COLORADO BLVD LLC,THE SPRING,403R-00041,"15 Colorado Boulevard, Unit B",Idaho Springs,80452,Retail,"15 Colorado Boulevard, Unit B Idaho Springs CO 80452"
G SQUARE ENTERPRISES LLC,GRAY WOLF CULTIVATION,403R-00340,8620 Colorado Hwy 103,Idaho Springs,80452,Retail,8620 Colorado Hwy 103 Idaho Springs CO 80452
MOUNTAIN MEDICINALS INC,MOUNTAIN MEDICINALS RETAIL CENTER,403R-00211,"1800 Colorado Boulevard, #1",Idaho Springs,80452,Retail,"1800 Colorado Boulevard, #1 Idaho Springs CO 80452"
MOUNTAIN MEDICINALS INC,MOUNTAIN MEDICINALS WELLNESS CENTER,403-00416,"1800 Colorado Boulevard, Units 4 & 6,",Idaho Springs,80452,Medical,"1800 Colorado Boulevard, Units 4 & 6, Idaho Springs CO 80452"
PUFF EDIBLES & CONCENTRATES,PUFF EDIBLES & CONCENTRATES,403R-00383,2237 E Idaho Springs Blvd,Idaho Springs,80452,Retail,2237 E Idaho Springs Blvd Idaho Springs CO 80452
THE KINE MINE LLC,,403R-00151,2058 E Idaho Springs,Idaho Springs,80452,Retail,2058 E Idaho Springs Idaho Springs CO 80452
THE KINE MINE LLC,,403R-00256,2820 Colorado Boulevard,Idaho Springs,80452,Retail,2820 Colorado Boulevard Idaho Springs CO 80452
COLORADO DREAM SUPPLIES LLC,COLORADO DREAM,403R-00386,24040 Highway 9,Hartsel,80449,Retail,24040 Highway 9 Hartsel CO 80449
HOTLEAF LLC,,403R-00567,30390 Colorado State Highway 9,Hartsel,80449,Retail,30390 Colorado State Highway 9 Hartsel CO 80449
ZBZ CORP,ANTERO JUNCTION,403R-00331,100 West Highway 24,Hartsel,80449,Retail,100 West Highway 24 Hartsel CO 80449
MEDICAL MARIJUANA OF THE ROCKIES LLC,SUMMIT MARIJUANA,403R-00427,1121 Dillon Dam Road,Frisco,80443,Retail,1121 Dillon Dam Road Frisco CO 80443
DUTCH CALIBER LLC,,403R-00521,136 Kokanee Road,Fairplay,80440,Retail,136 Kokanee Road Fairplay CO 80440
HOLISTICAL LLC,,403R-00390,375 Kokanee Road,Fairplay,80440,Retail,375 Kokanee Road Fairplay CO 80440
HCH3 LLC,THE HIGHWAY,403-00336,1221 County Road 308,Dumont,80436,Medical,1221 County Road 308 Dumont CO 80436
HCH3 LLC,,403R-00236,1221 County Road 308 B,Dumont,80436,Retail,1221 County Road 308 B Dumont CO 80436
MILAGRO WELLNESS HEALING LLC,MIND BODY SPIRIT 2,403R-00191,811 County Road 308,Downieville,80436,Retail,811 County Road 308 Downieville CO 80436
SOFA KING MEDICINAL WELLNESS PRODUCTS LLC,"SOFA KIND MEDICINAL WELLNESS PRODUCTS, LLC",403R-00385,1181 County Road 308,Dumont,80436,Retail,1181 County Road 308 Dumont CO 80436
SOFA KING MEDICINAL WELLNESS PRODUCTS LLC,,403-00565,1181 CR 308,Dumont,80436,Medical,1181 CR 308 Dumont CO 80436
NEW WORLD ALTERNATIVE HEALTHCARE LLC,TELLURIDE BUD COMPANY,403R-00441,400 Indian Lane,Como,80432,Retail,400 Indian Lane Como CO 80432
ORGANIX LLC,,403R-00083,"1795 Airport Road, A2",Breckenridge,80424,Retail,"1795 Airport Road, A2 Breckenridge CO 80424"
ORGANIX LLC,BRECKENRIDGE ORGANIX,403-00178,"1795 Airport Road, Suite A2",Breckenridge,80424,Medical,"1795 Airport Road, Suite A2 Breckenridge CO 80424"
HIGH COUNTRY FARMS LLC,HIGH COUNTRY FARMS,403R-00460,1860 Copper Spur Road,Bond,80423,Retail,1860 Copper Spur Road Bond CO 80423
ALTERNATIVE HOLISTIC HEALING LLC,ROCKY MOUNTAIN ORGANICS,403R-00200,5312 Hwy 119,Black Hawk,80422,Retail,5312 Hwy 119 Black Hawk CO 80422
ALTERNATIVE MEDICAL SUPPLIES LLC,,403R-00189,9 Karlann Drive,Black Hawk,80422,Retail,9 Karlann Drive Black Hawk CO 80422
CANNA CABANA LLC,,403R-00522,66803 US Highway 285,Bailey,80421,Retail,66803 US Highway 285 Bailey CO 80421
CCC INC,THE HAPPY CAMPER CANNABIS COMPANY,403R-00326,80 Rosalie Rd,Bailey,80421,Retail,80 Rosalie Rd Bailey CO 80421
NATURAL RELEAF LLC,NATURAL RELEAF,403R-00487,62160 Highway 285,Bailey,80421,Retail,62160 Highway 285 Bailey CO 80421
HCH2 LLC,,403R-00117,40 South Main Street,Alma,80420,Retail,40 South Main Street Alma CO 80420
HCH2 LLC,,403-00331,44 South Main Street,Alma,80420,Medical,44 South Main Street Alma CO 80420
SUSTAINABLE HEALTH LLC,14ER GARDENS,403-00685,1840 Commerce Street Units D & E,Boulder,80305,Medical,1840 Commerce Street Units D & E Boulder CO 80305
COLORADO HEALING LLC,HEADQUARTERS,403R-00308,"4727 North Broadway, Unit 1",Boulder,80304,Retail,"4727 North Broadway, Unit 1 Boulder CO 80304"
HEADQUARTERS EMPORIUM AND DISPENSARY LLC,,403R-00445,1501 Lee Hill Drive #9,Boulder,80304,Retail,1501 Lee Hill Drive #9 Boulder CO 80304
ITF INC,,403R-00329,"4891 North Broadway, Units 1&2",Boulder,80304,Retail,"4891 North Broadway, Units 1&2 Boulder CO 80304"
THE DANDELION,THE DANDELION LLC,403-00037,"4727 North Broadway, Unit C",Boulder,80304,Medical,"4727 North Broadway, Unit C Boulder CO 80304"
AJO HOLDINGS LLC,,403R-00416,"5757 Arapahoe Avenue, Unit C2",Boulder,80303,Retail,"5757 Arapahoe Avenue, Unit C2 Boulder CO 80303"
BOLDER VENTURES LTD,THE PEACEFUL CHOICE,403-01458,"6859 North Foothills Hwy, Units D400 & D500",Boulder,80303,Medical,"6859 North Foothills Hwy, Units D400 & D500 Boulder CO 80303"
BORIS DYNOWSKI LLC,,403R-00493,"6185 Arapahoe Road, Unit C",Boulder,80303,Retail,"6185 Arapahoe Road, Unit C Boulder CO 80303"
BOULDER TREATMENTS LLC,ROOT ORGANIC MMC,403-00748,"6390 Gunpark Drive, Unit E",Boulder,80303,Medical,"6390 Gunpark Drive, Unit E Boulder CO 80303"
CANNXTRACTS LLC,,403-01406,"5595 Arapahoe Avenue, Unit D",Boulder,80303,Medical,"5595 Arapahoe Avenue, Unit D Boulder CO 80303"
CANNXTRACTS LLC,,403-01087,"5595 Arapahoe, Unit A",Boulder,80303,Medical,"5595 Arapahoe, Unit A Boulder CO 80303"
HIS WAY HERBS LLC,BOULDER PHARMA,403R-00286,"5575 Arapahoe Avenue, Suite C",Boulder,80303,Retail,"5575 Arapahoe Avenue, Suite C Boulder CO 80303"
HIS WAY HERBS LLC,,403-01265,"5575 Arapahoe Avenue, Units B & C",Boulder,80303,Medical,"5575 Arapahoe Avenue, Units B & C Boulder CO 80303"
HIS WAY HERBS LLC,BOULDER PHARMA,403R-00483,"5595 Arapahoe Avenue, Unit C, D, E",Boulder,80303,Retail,"5595 Arapahoe Avenue, Unit C, D, E Boulder CO 80303"
HIS WAY HERBS LLC,BOULDER PHARMA,403-01465,"5595 Arapahoe Avenue, Units C, D and E",Boulder,80303,Medical,"5595 Arapahoe Avenue, Units C, D and E Boulder CO 80303"
IRIS HOLLOW CO INC,COLORADO SEED INC.,403R-00602,"5735 Arapahoe Avenue, Unit A",Boulder,80303,Retail,"5735 Arapahoe Avenue, Unit A Boulder CO 80303"
JTR CAREGIVERS LLC,HELPING HANDS HERBALS,403R-00312,"5735 Arapahoe Avenue, Unit B-1",Boulder,80303,Retail,"5735 Arapahoe Avenue, Unit B-1 Boulder CO 80303"
JTR CAREGIVERS LLC,HELPING HANDS HERBALS,403-01436,"5735 Arapahoe Avenue, Unit B1",Boulder,80303,Medical,"5735 Arapahoe Avenue, Unit B1 Boulder CO 80303"
OPTIONS MEDICAL CENTER LLC,ELEMENTS,403R-00257,"1900 55th Street, Unit A-101",Boulder,80303,Retail,"1900 55th Street, Unit A-101 Boulder CO 80303"
OPTIONS MEDICAL CENTER WR LLC,OPTIONS,403R-00240,"1880 South Flatirons Court, Units C&D",Boulder,80303,Retail,"1880 South Flatirons Court, Units C&D Boulder CO 80303"
ORGANIC WELLNESS DISPENSARY LLC,GREEN TREE MEDICINALS,403-00708,"5565 Arapahoe Avenue, Suite G",Boulder,80303,Medical,"5565 Arapahoe Avenue, Suite G Boulder CO 80303"
THE GREENEST GREEN LLC,BOLDER CANNABIS,403R-00258,"1900 55th Street, Unit B",Boulder,80303,Retail,"1900 55th Street, Unit B Boulder CO 80303"
TRILL THERAPEUTICS LLC,TRILL ALTERNATIVES,403-00645,"5589 Arapahoe, Unit 101",Boulder,80303,Medical,"5589 Arapahoe, Unit 101 Boulder CO 80303"
ANCIENT ALTERNATIVES LLC,GREEN TREE MEDICINALS,403-01685,"6859 North Foothills Highway,Unit D-300",Boulder,80302,Medical,"6859 North Foothills Highway,Unit D-300 Boulder CO 80302"
CADISA ENTERPRISES,,403R-00577,"6859 North Foothills Highway, Building C, Unit 600",Boulder,80302,Retail,"6859 North Foothills Highway, Building C, Unit 600 Boulder CO 80302"
KARING KIND LLC,,403R-00232,"5854 Rawhide Court, Suite C",Boulder,80302,Retail,"5854 Rawhide Court, Suite C Boulder CO 80302"
KIND ENTERPRISES LLC,,403R-00581,"6859 North Foothills Highway, Bldg C, C-100, C-200, C-300",Boulder,80302,Retail,"6859 North Foothills Highway, Bldg C, C-100, C-200, C-300 Boulder CO 80302"
RIFLE MOUNTAIN LLC,,403-01123,"6859 North Foothills, Building F-1",Boulder,80302,Medical,"6859 North Foothills, Building F-1 Boulder CO 80302"
TWG LIMITED,LOCOLO LOVE,403R-00499,"6859 North Foothills Highway, Building G",Boulder,80302,Retail,"6859 North Foothills Highway, Building G Boulder CO 80302"
ALTERMEDS LLC,STARBUDS,403R-00281,"2510 North 47th Street, Unit E",Boulder,80301,Retail,"2510 North 47th Street, Unit E Boulder CO 80301"
BOOM TOWN LLC,CRESTED BUTTE ALTERNTIVE MEDICINE,403-00781,"5595 Arapahoe Avenue, Suite F",Boulder,80301,Medical,"5595 Arapahoe Avenue, Suite F Boulder CO 80301"
BOOM TOWN LLC,CRESTED BUTTE ALTERNATIVE MEDICINE,403R-00475,"5595 Arapahoe Street, Suite F",Boulder,80301,Retail,"5595 Arapahoe Street, Suite F Boulder CO 80301"
BOULDER ALTERNATIVE CARE LLC,THE GREEN ROOM,403R-00245,"3554 Pearl Street, Unit G",Boulder,80301,Retail,"3554 Pearl Street, Unit G Boulder CO 80301"
BOULDER RX LLC,NATIVE ROOTS BOULDER,403R-00229,"1880 South Flatiron Court, Unit E",Boulder,80301,Retail,"1880 South Flatiron Court, Unit E Boulder CO 80301"
BOULDER WELLNESS CENTER LLC,,403R-00478,"2200 Central Avenue, Suite A-1",Boulder,80301,Retail,"2200 Central Avenue, Suite A-1 Boulder CO 80301"
BOULDER WELLNESS CENTER LLC,,403-01320,"6880 Winchester Circle, Suite A & B",Boulder,80301,Medical,"6880 Winchester Circle, Suite A & B Boulder CO 80301"
BRECKENRIDGE ORGANIC THERAPY LLC,,403R-00237,"1800 Commerce Street, Unit North A",Boulder,80301,Retail,"1800 Commerce Street, Unit North A Boulder CO 80301"
COLORADO HEALING LLC,HEADQUARTERS,403R-00533,4734 Pearl Street,Boulder,80301,Retail,4734 Pearl Street Boulder CO 80301
DALTON ADVENTURES LLC,,403R-00501,3705 North 75th Street,Boulder,80301,Retail,3705 North 75th Street Boulder CO 80301
GREEN MEADOWS WELLNESS LLC,INFINITE WELLNESS CENTER,403-01197,2981 Sterling Court,Boulder,80301,Medical,2981 Sterling Court Boulder CO 80301
HEALTH SERVICES LLC,GREEN DREAM HEALTH SERVICES,403-01414,"4700 Sterling Drive, Unit A",Boulder,80301,Medical,"4700 Sterling Drive, Unit A Boulder CO 80301"
HEALTH SERVICES LLC,GREEN DREAM HEALTH SERVICES,403-00570,"4700 Sterling Drive, Unit H",Boulder,80301,Medical,"4700 Sterling Drive, Unit H Boulder CO 80301"
ISM LLC,GREEN DOT LABS,403-01322,"2510 North 47th Street, Unit L",Boulder,80301,Medical,"2510 North 47th Street, Unit L Boulder CO 80301"
JTR CAREGIVERS LLC,HELPING HANDS HERBALS,403-00790,"4715 North Broadway, C1, C2, C3 & C8",Boulder,80301,Medical,"4715 North Broadway, C1, C2, C3 & C8 Boulder CO 80301"
LIGHTSHADE LABS LLC,LIGHTSHADE LABS,403-00897,"4665 Nautilus Court, Suite 400",Boulder,80301,Medical,"4665 Nautilus Court, Suite 400 Boulder CO 80301"
MAGNOLIA ROAD INC,MAGNOLIA ROAD INC,403-01390,"4747 Pearl Street, Unit M1",Boulder,80301,Medical,"4747 Pearl Street, Unit M1 Boulder CO 80301"
MEDICINE MAN LLC,MEDICINE MAN MEDICAL MARKET,403-00911,"5595 Arapahoe Road, Suite B, G And H",Boulder,80301,Medical,"5595 Arapahoe Road, Suite B, G And H Boulder CO 80301"
MIKE SQUARED LLC,BOULDER MARIJUANA CO.,403R-00239,"2480 49th Street, Unit H",Boulder,80301,Retail,"2480 49th Street, Unit H Boulder CO 80301"
MOUNTAIN HIGH PRODUCTS LLC,WANA,403R-00403,"7161 Valtec Court, Unit D&E",Boulder,80301,Retail,"7161 Valtec Court, Unit D&E Boulder CO 80301"
PANK LLC,PANK,403R-00455,7084 Winchester Circle,Boulder,80301,Retail,7084 Winchester Circle Boulder CO 80301
PIKES PEAK CANNABIS CAREGIVERS LLC,,403-01328,"4747 Pearl Street, Unit M2",Boulder,80301,Medical,"4747 Pearl Street, Unit M2 Boulder CO 80301"
PURE INDUSTRIES LLC,,403R-00265,"2500 47th Street, Unit 2",Boulder,80301,Retail,"2500 47th Street, Unit 2 Boulder CO 80301"
RMIG LLC,THE BUD DEPOT,403-00298,"4747 Pearl Street, Units V3A & V3C",Boulder,80301,Medical,"4747 Pearl Street, Units V3A & V3C Boulder CO 80301"
SKINNY PINEAPPLE INC,STERLING SOUTH,403R-00273,"3065 West Sterling Circle, Unit C",Boulder,80301,Retail,"3065 West Sterling Circle, Unit C Boulder CO 80301"
SKINNY PINEAPPLE INC,STERLING NORTH,403R-00272,"3095 West Sterling Circle, Unit 3",Boulder,80301,Retail,"3095 West Sterling Circle, Unit 3 Boulder CO 80301"
SKINNY PINEAPPLE INC,NAUTILUS,403R-00271,"4725 South Nautilus Court, Suite 3",Boulder,80301,Retail,"4725 South Nautilus Court, Suite 3 Boulder CO 80301"
SKINNY PINEAPPLE INC,WESTERN,403R-00270,"5441 Western Avenue, Suite 2",Boulder,80301,Retail,"5441 Western Avenue, Suite 2 Boulder CO 80301"
SOUTHWEST ALTERNATIVE CARE LLC,,403-01001,"6390 Gunpark Drive, Unit A",Boulder,80301,Medical,"6390 Gunpark Drive, Unit A Boulder CO 80301"
SUSTAINABLE HEALTH LLC,14er GARDENS,403R-00268,"1840 Commerce Street, Units A-B",Boulder,80301,Retail,"1840 Commerce Street, Units A-B Boulder CO 80301"
TABLE MESA WELLNESS CENTER LLC,NORTH BOULDER WELLNESS CENTER,403-00571,"7161 Valtec Court, Unit A",Boulder,80301,Medical,"7161 Valtec Court, Unit A Boulder CO 80301"
TENDERFOOT HEALTH COLLECTIVE,,403-01400,"2510 47th Street, #GG",Boulder,80301,Medical,"2510 47th Street, #GG Boulder CO 80301"
TENDERFOOT HEALTH COLLECTIVE,,403R-00423,"2510 47th Street, Suite GG",Boulder,80301,Retail,"2510 47th Street, Suite GG Boulder CO 80301"
THE DANDELION,THE DANDELION LLC,403R-00479,"6880 Winchester Circle, Suite C",Boulder,80301,Retail,"6880 Winchester Circle, Suite C Boulder CO 80301"
THE GENETIC LOCKER INC,TERRAPIN CARE STATION,403-00059,"6390 Gunpark Drive, Unit C",Boulder,80301,Medical,"6390 Gunpark Drive, Unit C Boulder CO 80301"
THE GENETIC LOCKER INC,TERRAPIN CARE STATION,403R-00231,"6420 Gunpark Drive, Unit C",Boulder,80301,Retail,"6420 Gunpark Drive, Unit C Boulder CO 80301"
TRILL THERAPEUTICS LLC,TRILL ALTERNATIVES,403-00959,"1845 Range Street, Bay G",Boulder,80301,Medical,"1845 Range Street, Bay G Boulder CO 80301"
URBAN CANNABIS LLC,HEALING HOUSE,403R-00315,"2480 49th Street, Suite F2",Boulder,80301,Retail,"2480 49th Street, Suite F2 Boulder CO 80301"
ORGANIX LLC,,403R-00081,585 South Jason Street,Denver,80247,Retail,585 South Jason Street Denver CO 80247
3B 38 LLC,BUDDY BOY,403R-00435,4600 Ironton Street,Denver,80239,Retail,4600 Ironton Street Denver CO 80239
3B 38 LLC,BUDDY BOY,403-01309,"4600 Ironton Street, Suite B",Denver,80239,Medical,"4600 Ironton Street, Suite B Denver CO 80239"
3B FEDERAL1 LLC,BUDDY BOY,403-01140,"4600 Ironton Street, Unit B",Denver,80239,Medical,"4600 Ironton Street, Unit B Denver CO 80239"
4625 EAST COLFAX LLC,THE CLINIC ALTERNATIVE MEDICINE DBA THE CLINIC,403-00193,"5098 Paris Street, Building #1",Denver,80239,Medical,"5098 Paris Street, Building #1 Denver CO 80239"
505 CENTER LLC,PURE MEDICAL DISPENSARY,403-00743,"5475 Peoria Street, Building 2, Units 106-110",Denver,80239,Medical,"5475 Peoria Street, Building 2, Units 106-110 Denver CO 80239"
ALLGREENS,,403-00844,"5475 Peoria Street, Suite1-104",Denver,80239,Medical,"5475 Peoria Street, Suite1-104 Denver CO 80239"
CANNA CENTER LLC,,403-00078,3819 North Quentin Street,Denver,80239,Medical,3819 North Quentin Street Denver CO 80239
CARRICK-HARVEST LLC,,403R-00063,"4705 Oakland St, Unit A",Denver,80239,Retail,"4705 Oakland St, Unit A Denver CO 80239"
COLORADO CANNABIS COMPANY LLC,PURE MEDICAL DISPENSARY,403R-00453,"5475 Peoria Street, Building 1, Units 101,102,103",Denver,80239,Retail,"5475 Peoria Street, Building 1, Units 101,102,103 Denver CO 80239"
COLORADO CANNABIS COMPANY LLC,PURE MEDICAL DISPENSARY,403-00259,"5475 Peoria Street, Unit 1-101,102,103",Denver,80239,Medical,"5475 Peoria Street, Unit 1-101,102,103 Denver CO 80239"
COLORADOS BEST INC,LACONTES CLONE BAR & DISPENSARY,403R-00471,11155 East 51st Avenue,Denver,80239,Retail,11155 East 51st Avenue Denver CO 80239
COLORADOS BEST INC,LACONTES CLONE BAR & DISPENSARY,403-00161,"11155 East 51st Avenue, Suite A",Denver,80239,Medical,"11155 East 51st Avenue, Suite A Denver CO 80239"
FIREHOUSE ORGANICS CENTRAL LLC,FIREHOUSE ORGANICS,403-00492,"4800 Oakland Street, Unit 5",Denver,80239,Medical,"4800 Oakland Street, Unit 5 Denver CO 80239"
FL89 LLC,FROSTED LEAF,403-01665,3819 Quentin Street,Denver,80239,Medical,3819 Quentin Street Denver CO 80239
FRESH BAKED LLC,FRESH BAKED,403R-00251,4600 North Ironton Street #103,Denver,80239,Retail,4600 North Ironton Street #103 Denver CO 80239
FUTUREVISION INC,MEDICINE MAN DENVER,403-00131,"4750 Nome Street, Unit B",Denver,80239,Medical,"4750 Nome Street, Unit B Denver CO 80239"
FUTUREVISION INC,MEDICINE MAN DENVER,403R-00040,4750-4760 Nome Street,Denver,80239,Retail,4750-4760 Nome Street Denver CO 80239
GREEN LIFE SOLUTIONS LLC,GREEN TREE MEDICINALS,403-01362,4725-35 Oakland Street,Denver,80239,Medical,4725-35 Oakland Street Denver CO 80239
GUARANTEED GREEN LTD,,403-01663,"4800 Oakland Street, Unit 3",Denver,80239,Medical,"4800 Oakland Street, Unit 3 Denver CO 80239"
HADCAV ENTERPRISES INC,PURE MEDICAL DISPENSARY,403-00744,"5475 Peoria Street, Building 1, Suite 106",Denver,80239,Medical,"5475 Peoria Street, Building 1, Suite 106 Denver CO 80239"
JS INVESTMENTS LLC,EUFLORA,403R-00070,5300 Joliet Street,Denver,80239,Retail,5300 Joliet Street Denver CO 80239
LITTLE GREEN PHARMACY INC,,403-00631,4575 Joliet Street,Denver,80239,Medical,4575 Joliet Street Denver CO 80239
LYONS FINEST CONFIDENTIAL CARE LLC,,403-01288,11080 East 47th Avenue,Denver,80239,Medical,11080 East 47th Avenue Denver CO 80239
LYONS FINEST CONFIDENTIAL CARE LLC,TUMBLEWEED,403R-00554,4695 Kingston Street,Denver,80239,Retail,4695 Kingston Street Denver CO 80239
MMD OF COLORADO LLC,URBA,403R-00158,4700 Kingston Street,Denver,80239,Retail,4700 Kingston Street Denver CO 80239
PERSONALIZED ORGANIC TREATMENTS LLC,,403-01036,11122 East 47th Avenue,Denver,80239,Medical,11122 East 47th Avenue Denver CO 80239
TRILL EVOLUTIONS LLC,TRILL EVOLUTIONS,403-01703,5550 Joliet Street,Denver,80239,Medical,5550 Joliet Street Denver CO 80239
VIOLA INC,VIOLA'S EXTRACTS,403-01536,4645 Joliet Street,Denver,80239,Medical,4645 Joliet Street Denver CO 80239
MMST LLC,WELLSPRING COLLECTIVE,403-01024,"1285 West Byers Place, Unit B",Denver,80233,Medical,"1285 West Byers Place, Unit B Denver CO 80233"
MR GOOD BUDZ LLC,HOLISTIC LIFE,403-00301,"1395 South Sheridan Boulevard, Units F, G, H & I",Lakewood,80232,Medical,"1395 South Sheridan Boulevard, Units F, G, H & I Lakewood CO 80232"
ADG HERBAL MEDICINE INC,FROSTED LEAF,403-00693,50 Lipan Street,Denver,80226,Medical,50 Lipan Street Denver CO 80226
HEALING HOUSE LAKEWOOD LLC,HEALING HOUSE,403-00469,10712 West Alameda Avenue,Lakewood,80226,Medical,10712 West Alameda Avenue Lakewood CO 80226
MBS WELLNESS CLINIC LLC,MIND BODY SPIRIT WELLNESS CLINIC,403-01259,"6745 West Mississippi Avenue, Suite B",Lakewood,80226,Medical,"6745 West Mississippi Avenue, Suite B Lakewood CO 80226"
POSTMODERN HEALTH LLC,LIVWELL,403-00603,5660 West Alameda Avenue,Denver,80226,Medical,5660 West Alameda Avenue Denver CO 80226
WALKING RAVEN II LLC,WALKING RAVEN,403-00353,875 Navajo Street,Denver,80224,Medical,875 Navajo Street Denver CO 80224
4625 EAST COLFAX LLC,THE CLINIC ON COLFAX,403-00192,"2675 South Santa Fe Drive, Units 6E, 6F, 6G",Denver,80223,Medical,"2675 South Santa Fe Drive, Units 6E, 6F, 6G Denver CO 80223"
ADVANCED MEDICAL ALTERNATIVES LLC,,403-01534,"400 South Lipan, Unit 2 & 6",Denver,80223,Medical,"400 South Lipan, Unit 2 & 6 Denver CO 80223"
ALPINE HERBAL WELLNESS LLC,FROSTED LEAF,403-01055,52 Lipan Street,Denver,80223,Medical,52 Lipan Street Denver CO 80223
ALTERNATIVE MEDICINE ON CAPITOL HILL,,403-00003,211 Wyandot Street,Denver,80223,Medical,211 Wyandot Street Denver CO 80223
ALTITUDE WELLNESS CENTER LLC,NATURE'S HERBS AND WELLNESS DTC,403R-00171,"1131, 1133 and 1135 South Bannock Street",Denver,80223,Retail,"1131, 1133 and 1135 South Bannock Street Denver CO 80223"
ALTITUDE WELLNESS CENTER LLC,,403-00324,"1131, 1133, and 1135 South Bannock Street",Denver,80223,Medical,"1131, 1133, and 1135 South Bannock Street Denver CO 80223"
ANIMAS HERBAL WELLNESS CENTER INC,,403-01688,1101 South Bannock Street,Denver,80223,Medical,1101 South Bannock Street Denver CO 80223
ANIMAS HERBAL WELLNESS CENTER INC,,403R-00550,"1115 South Bannock Street, Unit B",Denver,80223,Retail,"1115 South Bannock Street, Unit B Denver CO 80223"
ANIMAS HERBAL WELLNESS CENTER INC,,403-00898,"1115 South Bannock Street, Unit B,",Denver,80223,Medical,"1115 South Bannock Street, Unit B, Denver CO 80223"
ANIMAS HERBAL WELLNESS CENTER INC,ANIMAS HERBAL WELLNESS CENTER INC,403R-00344,577 South Jason,Denver,80223,Retail,577 South Jason Denver CO 80223
ANIMAS HERBAL WELLNESS CENTER INC,,403-01369,577 South Jason Street,Denver,80223,Medical,577 South Jason Street Denver CO 80223
AREN & DAVES DREAM LLC,SARGENT GREEN LEAF,403-01120,803 South Jason Street,Denver,80223,Medical,803 South Jason Street Denver CO 80223
B'S TREATS LLC,,403-01566,1952 South Acoma Street,Denver,80223,Medical,1952 South Acoma Street Denver CO 80223
BGOOD VENTURES LLC,BGOOD APOTHECARY,403-01009,1031 West Center Avenue,Denver,80223,Medical,1031 West Center Avenue Denver CO 80223
BK HOLDINGS LLC,THE HERBAL CENTER,403-01677,1980 South Acoma Street,Denver,80223,Medical,1980 South Acoma Street Denver CO 80223
BOTICA DEL SOL LLC,BOTICA DEL SOL,403-01094,150 North Tejon,Denver,80223,Medical,150 North Tejon Denver CO 80223
BUDDIES WELLNESS LLC,LA BODEGA,403R-00234,"1270 West Cedar Avenue, Suite A",Denver,80223,Retail,"1270 West Cedar Avenue, Suite A Denver CO 80223"
BUDDIES WELLNESS LLC,LA BODEGA,403-00364,"1270 West Cedar Avenue, Unit A",Denver,80223,Medical,"1270 West Cedar Avenue, Unit A Denver CO 80223"
CNW LLC,ARTISANAL MEDICINALS,403-00339,1901 South Bannock Street,Denver,80223,Medical,1901 South Bannock Street Denver CO 80223
CNW LLC,ARTISANAL MEDICINALS,403-00053,2042 South Bannock Street,Denver,80223,Medical,2042 South Bannock Street Denver CO 80223
COLORADO APOTHECARY & WELLNESS CENTER INC,COLORADO APOTHECARY & WELLNESS CENTER INC,403-01531,2160 S. Lipan Street,Denver,80223,Medical,2160 S. Lipan Street Denver CO 80223
COLORADO APOTHECARY & WELLNESS CENTER INC,COLORADO APOTHECARY & WELLNESS CENTER,403-01530,2160 South Lipan Street,Denver,80223,Medical,2160 South Lipan Street Denver CO 80223
COLORADO COLITAS LLC,HERBAL REMEDIES,403-00984,1920 South Cherokee Street,Denver,80223,Medical,1920 South Cherokee Street Denver CO 80223
COLORADO WELLNESS CENTERS LLC,LUSH,403R-00111,2490 West 2nd Avenue,Denver,80223,Retail,2490 West 2nd Avenue Denver CO 80223
COLORADO WELLNESS CENTERS LLC,LUSH,403-00080,"2490 West 2nd Avenue, Unit A",Denver,80223,Medical,"2490 West 2nd Avenue, Unit A Denver CO 80223"
COLORADO WELLNESS INC,,403-01690,2050 South Cherokee Street,Denver,80223,Medical,2050 South Cherokee Street Denver CO 80223
D & D CONSULTING INC,SOUTHWEST ALTERNATIVE CARE FOX ST.,403-00853,1075 South Fox Street,Denver,80223,Medical,1075 South Fox Street Denver CO 80223
DARK HORSE GENETICS LLC,,403-01702,2145 South Kalamath Street,Denver,80223,Medical,2145 South Kalamath Street Denver CO 80223
DGP 38TH LLC,SWEET LEAF,403R-00209,124 Yuma Street,Denver,80223,Retail,124 Yuma Street Denver CO 80223
DGS INC,THE KIND BLOOM,403-00736,1870 South Acoma,Denver,80223,Medical,1870 South Acoma Denver CO 80223
DGS INC,THE KIND ROOM,403R-00013,1870 South Acoma Street,Denver,80223,Retail,1870 South Acoma Street Denver CO 80223
EVERGREEN ENTERPRISES LTD,,403-01621,1770 South Acoma Street,Denver,80223,Medical,1770 South Acoma Street Denver CO 80223
FIREHOUSE ORGANICS NORTH LLC,FIREHOUSE ORGANICS,403-00447,1196 South Bannock Street,Denver,80223,Medical,1196 South Bannock Street Denver CO 80223
FRESH BAKED LLC,FRESH BAKED COMPANY,403R-00250,735 West Bayaud Avenue,Denver,80223,Retail,735 West Bayaud Avenue Denver CO 80223
GMC LLC,,403R-00201,2175 South Platte River Drive,Denver,80223,Retail,2175 South Platte River Drive Denver CO 80223
GMC LLC,GREEN MAN CANNABIS,403-00738,"2175 South Platte River Drive, Unit 101",Denver,80223,Medical,"2175 South Platte River Drive, Unit 101 Denver CO 80223"
GMC LLC,GREEN MAN CANNABIS,403-00361,2191 South Platte River Drive,Denver,80223,Medical,2191 South Platte River Drive Denver CO 80223
HERBAL WELLNESS,SWEET LEAF,403-01567,136 Yuma Street,Denver,80223,Medical,136 Yuma Street Denver CO 80223
HERBAL WELLNESS,,403-00265,1475 South Acoma Street,Denver,80223,Medical,1475 South Acoma Street Denver CO 80223
HIGH COUNTRY SUPPLY LLC,,403R-00097,2335 S Platte River Drive,Denver,80223,Retail,2335 S Platte River Drive Denver CO 80223
HIGH COUNTRY SUPPLY LLC,EVERGREEN APOTHECARY LLC,403-00634,2335 South Platte River Drive,Denver,80223,Medical,2335 South Platte River Drive Denver CO 80223
I & S LLC,CANNAMART,403-01570,"1110 West Virginia Avenue, Unit 4",Denver,80223,Medical,"1110 West Virginia Avenue, Unit 4 Denver CO 80223"
JVT ENTERPRISES INC,COLORADO CANNABIS CONNECTION,403-01486,1075 South Jason Street,Denver,80223,Medical,1075 South Jason Street Denver CO 80223
KARMACEUTICALS LLC,KARMACEUTICALS,403-01041,1355 South Inca Street,Denver,80223,Medical,1355 South Inca Street Denver CO 80223
KARMACEUTICALS LLC,KARMACEUTICALS,403-01040,4 South Santa Fe Drive,Denver,80223,Medical,4 South Santa Fe Drive Denver CO 80223
KAYAK CORP,AMSTERDAM CAFE,403R-00094,"1325 South Inca Street, Suite A",Denver,80223,Retail,"1325 South Inca Street, Suite A Denver CO 80223"
KAYAK CORP,AMSTERDAM CAFE,403-00088,"1325 South Inca Street, Unit A",Denver,80223,Medical,"1325 South Inca Street, Unit A Denver CO 80223"
KPST LLC,5 BUDS,403R-00404,130 Lipan Street,Denver,80223,Retail,130 Lipan Street Denver CO 80223
L'EAGLE SERVICES LLC,L'EAGLE,403R-00267,380 Quivas Street,Denver,80223,Retail,380 Quivas Street Denver CO 80223
LOTUS MEDICAL II LLC,,403R-00575,2257 South Kalamath Street,Denver,80223,Retail,2257 South Kalamath Street Denver CO 80223
MAGNA MARKETING INC,HERBS 4 YOU,403R-00095,"1325 South Inca Street, Suite B",Denver,80223,Retail,"1325 South Inca Street, Suite B Denver CO 80223"
MAGNA MARKETING INC,HERBS 4 YOU,403-00087,"1325 South Inca Street, Unit B",Denver,80223,Medical,"1325 South Inca Street, Unit B Denver CO 80223"
MILE HIGH DISPENSARY LLC,,403-01619,"2252 South Kalamath Street, Unit C",Denver,80223,Medical,"2252 South Kalamath Street, Unit C Denver CO 80223"
MILE HIGH DISPENSARY LLC,,403-01354,54 Lipan Street,Denver,80223,Medical,54 Lipan Street Denver CO 80223
MILE HIGH GREEN CROSS LLC,,403-00881,"1015 West Evans Avenue, Units A & B",Denver,80223,Medical,"1015 West Evans Avenue, Units A & B Denver CO 80223"
MILE HIGH WELLNESS II LLC,MILE HIGH WELLNESS GREEN STREET,403-01592,2291 South Kalamath Street,Denver,80223,Medical,2291 South Kalamath Street Denver CO 80223
MMJ CHEROKEE LLC,MMJ AMERICA CHEROKEE,403-01687,1155 South Cherokee Street,Denver,80223,Medical,1155 South Cherokee Street Denver CO 80223
MMST LLC,WELLSPRING COLLECTIVE,403R-00039,"1285 West Byers Place, Unit B (aka 1275 W. Byers Place)",Denver,80223,Retail,"1285 West Byers Place, Unit B (aka 1275 W. Byers Place) Denver CO 80223"
MMST LLC,WS THE RUBY,403-01498,1301 South Cherokee Street,Denver,80223,Medical,1301 South Cherokee Street Denver CO 80223
MOUNTAIN HIGH SUCKERS LLC,MOUNTAIN HIGH SUCKERS,403R-00228,400 South Lipan Street,Denver,80223,Retail,400 South Lipan Street Denver CO 80223
MOUNTAIN HIGH SUCKERS LLC,MOUNTAIN HIGH SUCKERS,403-00363,"400 South Lipan Street, Unit 11",Denver,80223,Medical,"400 South Lipan Street, Unit 11 Denver CO 80223"
NEW AMSTERDAM ORGANICS LTD,NEW AMSTERDAM ORGANICS,403-01604,150 Rio Grande Boulevard,Denver,80223,Medical,150 Rio Grande Boulevard Denver CO 80223
O LIMITED,Silver Stem Fine Cannabis,403R-00288,1110 West Virginia Avenue,Denver,80223,Retail,1110 West Virginia Avenue Denver CO 80223
OPTIONS MEDICAL CENTER WR LLC,OPTIONS,403-01159,1191 South Bannock Street,Denver,80223,Medical,1191 South Bannock Street Denver CO 80223
ORGANIX LLC,,403-01321,1001 West Center Avenue,Denver,80223,Medical,1001 West Center Avenue Denver CO 80223
PATIENTS CHOICE OF COLORADO LLC,,403-01343,1201 West Custer Place,Denver,80223,Medical,1201 West Custer Place Denver CO 80223
PINEAPPLE EXCHANGE LLC,PINEAPPLE EXCHANGE,403-01630,"2218 South Kalamath Street, Unit A",Denver,80223,Medical,"2218 South Kalamath Street, Unit A Denver CO 80223"
ROCKY MOUNTAIN ORGANIC MEDICINE INC,,403-00375,2345 South Delaware Street,Denver,80223,Medical,2345 South Delaware Street Denver CO 80223
SMOKED COLORADO INC,,403-01620,1990 South Cherokee Street,Denver,80223,Medical,1990 South Cherokee Street Denver CO 80223
SOLACE MEDS LLC,,403-01532,"1015 West Evans Avenue, Unit C",Denver,80223,Medical,"1015 West Evans Avenue, Unit C Denver CO 80223"
STONE T.M.C. LLC,THE STONE DISPENSARY,403R-00589,1828 South Bannock Street,Denver,80223,Retail,1828 South Bannock Street Denver CO 80223
SUMMIT WELLNESS LLC,DEN-REC DENVER RECREATIONAL DISPENSARY,403R-00174,2211 South Jason Street,Denver,80223,Retail,2211 South Jason Street Denver CO 80223
SWEET LEAF LLC,SWEET LEAF,403R-00207,"110 Yuma Street, #4",Denver,80223,Retail,"110 Yuma Street, #4 Denver CO 80223"
SWEET LEAF LLC,,403-00352,"110 Yuma Street, Unit 3",Denver,80223,Medical,"110 Yuma Street, Unit 3 Denver CO 80223"
TREATMENTS UNLIMITED LLC,ALTITUDE EAST,403-01547,"2252 South Kalamath Street, Unit A",Denver,80223,Medical,"2252 South Kalamath Street, Unit A Denver CO 80223"
UNIQUEITMINDS INC,CHRONORADO,403-00486,400 South Lipan Street #15,Denver,80223,Medical,400 South Lipan Street #15 Denver CO 80223
UNIQUEITMINDS INC,CHRONORADO,403-01679,"400 South Lipan Street, #3 & 7",Denver,80223,Medical,"400 South Lipan Street, #3 & 7 Denver CO 80223"
UNIVERSAL HERBS LLC,,403-01457,1197 South Bannock Street,Denver,80223,Medical,1197 South Bannock Street Denver CO 80223
URBANE DEVELOPERS LLC,,403-01618,2185 South Jason Street,Denver,80223,Medical,2185 South Jason Street Denver CO 80223
WANNA LLC,,403-00047,1865 South Acoma,Denver,80223,Medical,1865 South Acoma Denver CO 80223
WANNA LLC,ALAMEDA WELLNESS CENTER,403R-00131,1865 South Acoma Street,Denver,80223,Retail,1865 South Acoma Street Denver CO 80223
WASH PARK BOUTIQUE LLC,LUCY SKY DISPENSARY,403-00379,366 Vallejo Street,Denver,80223,Medical,366 Vallejo Street Denver CO 80223
ZUNI WELLNESS CENTER LLC,THE LAB,403-00197,"2675 South Santa Fe Drive, Units 6C, 6D, 6E, 6F, 6G and 6H",Denver,80223,Medical,"2675 South Santa Fe Drive, Units 6C, 6D, 6E, 6F, 6G and 6H Denver CO 80223"
4625 EAST COLFAX LLC,THE CLINIC ON COLFAX,403R-00060,"2675 South Santa Fe Drive, Unit 6E, 6F, 6G",Denver,80222,Retail,"2675 South Santa Fe Drive, Unit 6E, 6F, 6G Denver CO 80222"
THREE LIONS CORP LLC,THREE LIONS CORP LLC,403-01511,1434 North Ulster Street,Denver,80220,Medical,1434 North Ulster Street Denver CO 80220
CAREGIVERS FOR LIFE LLC,,403-00451,"2744 West 4th Avenue, Unit 200",Denver,80219,Medical,"2744 West 4th Avenue, Unit 200 Denver CO 80219"
COLORADO COLITAS LLC,HERBAL REMEDIES,403-00985,5109 West Alameda Avenue,Denver,80219,Medical,5109 West Alameda Avenue Denver CO 80219
NATURES OWN WELLNESS CENTER,,403-00311,"2744 West 4th Avenue, Unit 202",Denver,80219,Medical,"2744 West 4th Avenue, Unit 202 Denver CO 80219"
NORTH FEDERAL LLC,THE GROVE,403-01314,74 North Federal Boulevard,Denver,80219,Medical,74 North Federal Boulevard Denver CO 80219
STONE T.M.C. LLC,THE STONE DISPENSARY,403-01271,4820 Morrison Road,Denver,80219,Medical,4820 Morrison Road Denver CO 80219
3-D DENVERS DISCREET DISPENSARY LLC,3D DISPENSARY AND/OR 3D CANNABIS CENTER,403-00114,4305 Brighton Blvd.,Denver,80216,Medical,4305 Brighton Blvd. Denver CO 80216
3-D DENVERS DISCREET DISPENSARY LLC,3D CANNABIS CENTER & 3D DISPENSARY,403R-00007,4305 Brighton Boulevard,Denver,80216,Retail,4305 Brighton Boulevard Denver CO 80216
5110 RACE LLC,THE SANCTUARY,403R-00003,2424 East 43rd Avenue,Denver,80216,Retail,2424 East 43rd Avenue Denver CO 80216
5110 RACE LLC,THE SANCTUARY,403-01487,5110 Race Street,Denver,80216,Medical,5110 Race Street Denver CO 80216
AJO HOLDINGS LLC,HIGH SOCIETY MEDICAL CANNABIS,403-01462,4335 Race Street,Denver,80216,Medical,4335 Race Street Denver CO 80216
ALTA PRAIRIE LLC,,403R-00058,4611 East 46th Avenue,Denver,80216,Retail,4611 East 46th Avenue Denver CO 80216
ALTERNATIVE MEDICINE ON THE MALL LLC,NATIVE ROOTS APOTHECARY,403-01643,4990 Dahlia Street,Denver,80216,Medical,4990 Dahlia Street Denver CO 80216
AMERICAN INDUSTRY LLC,DENVER DAM,403R-00555,4571 Ivy Street,Denver,80216,Retail,4571 Ivy Street Denver CO 80216
ARTISTANT DISPENSARY CENTER INC,LIVWELL,403-00921,5141 Franklin Street,Denver,80216,Medical,5141 Franklin Street Denver CO 80216
BALLPARK HOLISTIC DISPENSARY LLC,BALLPARK HOLISTIC DISPENSARY,403R-00335,"4228 North York Street, #102, 103, 105",Denver,80216,Retail,"4228 North York Street, #102, 103, 105 Denver CO 80216"
BALLPARK HOLISTIC DISPENSARY LLC,Ballpark Holistic Dispensary,403-00262,"4228 York Street, Units 102, 103 & 105",Denver,80216,Medical,"4228 York Street, Units 102, 103 & 105 Denver CO 80216"
BOTANICO INC,BOTANICO INC,403R-00067,4668 Glencoe Street,Denver,80216,Retail,4668 Glencoe Street Denver CO 80216
CAREGIVERS FOR LIFE LLC,,403R-00109,4900 Jackson Street,Denver,80216,Retail,4900 Jackson Street Denver CO 80216
CG INDUSTRY LLC,CROSS GENETICS,403-01350,"4902 East Smith Road, Unit C",Denver,80216,Medical,"4902 East Smith Road, Unit C Denver CO 80216"
CITI-MED LLC,STARBUDS,403-00256,"4228 North York Street, Unit 101",Denver,80216,Medical,"4228 North York Street, Unit 101 Denver CO 80216"
COLORADO HEALTH CONSULTANTS LLC,STARBUDS,403R-00026,4690 Brighton Boulevard,Denver,80216,Retail,4690 Brighton Boulevard Denver CO 80216
COLORADOS BEST INC,LACONTES CLONE BAR & DISPENSARY,403-00162,5194 Washington Street,Denver,80216,Medical,5194 Washington Street Denver CO 80216
COMPASSIONATE CARE GIVERS INC,ROCKY MOUNTAIN HIGH,403-00064,"4228 North York Street, Units 104, 106 & 107",Denver,80216,Medical,"4228 North York Street, Units 104, 106 & 107 Denver CO 80216"
COMPASSIONATE CARE GIVERS INC,,403R-00085,"4228 York Street, Unit 104",Denver,80216,Retail,"4228 York Street, Unit 104 Denver CO 80216"
COMPASSIONATE CARE GIVERS INC,ROCKY MOUNTAIN HIGH,403-00066,"4228 York Street, Units 104, 106 & 107",Denver,80216,Medical,"4228 York Street, Units 104, 106 & 107 Denver CO 80216"
COMPASSIONATE CARE GIVERS INC,THE CANNABIS STATION,403-00065,"4237 Josephine Street, Unit 102 & 103",Denver,80216,Medical,"4237 Josephine Street, Unit 102 & 103 Denver CO 80216"
COMPASSIONATE CARE GIVERS INC,,403R-00086,"4237 Josephine Street, Units 102-103",Denver,80216,Retail,"4237 Josephine Street, Units 102-103 Denver CO 80216"
COMPASSIONATE CARE GIVERS INC,,403R-00088,6666 East Stapleton Drive South,Denver,80216,Retail,6666 East Stapleton Drive South Denver CO 80216
DENCO LLC,,403-01355,4300 East 51st Avenue,Denver,80216,Medical,4300 East 51st Avenue Denver CO 80216
DENVER PACKAGING COMPANY,,403-01423,5100 Cook Street,Denver,80216,Medical,5100 Cook Street Denver CO 80216
DKC LLC,DENVER KUSH CLUB,403R-00031,4960 Jackson Street,Denver,80216,Retail,4960 Jackson Street Denver CO 80216
DKC LLC,DENVER KUSH CLUB,403-00806,4960 North Jackson Street,Denver,80216,Medical,4960 North Jackson Street Denver CO 80216
DR J's LLC,DR J's LLC,403-01471,"3850 East 48th Avenue, Unit E",Denver,80216,Medical,"3850 East 48th Avenue, Unit E Denver CO 80216"
EC LABS LLC,ENDOCANNA,403-01580,"4300 Forest Street, Suite 150",Denver,80216,Medical,"4300 Forest Street, Suite 150 Denver CO 80216"
EVOLUTIONARY HOLDINGS LLC,ELEMENT FOUR20,403-00566,"5231 Monroe Street, Unit 200",Denver,80216,Medical,"5231 Monroe Street, Unit 200 Denver CO 80216"
FL89 LLC,FROSTED LEAF,403-01631,4935 Pearl Street,Denver,80216,Medical,4935 Pearl Street Denver CO 80216
GRAND TRAVERSE HOLDINGS LLC,,403-01651,4420 & 4430 Garfield Street,Denver,80216,Medical,4420 & 4430 Garfield Street Denver CO 80216
GREEN AROUND YOU LLC,GREEN AOUND YOU - A MEDICAL MARIJUANA DISPENSARY,403-00089,"3850 East 48th Avenue, Unit 3",Denver,80216,Medical,"3850 East 48th Avenue, Unit 3 Denver CO 80216"
GREEN AROUND YOU LLC,,403-01411,4840 Jackson Street,Denver,80216,Medical,4840 Jackson Street Denver CO 80216
GREEN CROSS COLORADO LLC,,403-00673,"660 Bryant Street, Unit #102",Denver,80216,Medical,"660 Bryant Street, Unit #102 Denver CO 80216"
GREEN CROSS LLC,GREEN CROSS OF CHERRY CREEK,403-00212,5225 Monroe Street,Denver,80216,Medical,5225 Monroe Street Denver CO 80216
GREEN FIELDS LLC,GREENFIELDS,403-01317,4802 Brighton Boulevard,Denver,80216,Medical,4802 Brighton Boulevard Denver CO 80216
GREEN GARDENS LLC,GREEN FIELDS,403-01678,"4800 Brighton Boulevard, Unit 102-B",Denver,80216,Medical,"4800 Brighton Boulevard, Unit 102-B Denver CO 80216"
GREENWERKZ LLC,,403R-00120,3615 Delgany Street Unit A,Denver,80216,Retail,3615 Delgany Street Unit A Denver CO 80216
GREENWERKZ LLC,,403-00229,"3615 Delgany Street,Unit A",Denver,80216,Medical,"3615 Delgany Street,Unit A Denver CO 80216"
INFUZIONZ LLC,NECTAR BEE,403R-00021,4394 Grape Street,Denver,80216,Retail,4394 Grape Street Denver CO 80216
IVXX INFUZIONZ LLC,INFUZIONZ,403-01385,5285-5305 Steele Street,Denver,80216,Medical,5285-5305 Steele Street Denver CO 80216
KIRKE LLC,THE HEMP CENTER COLORADO SPRINGS,403-00892,4570 Jason Street,Denver,80216,Medical,4570 Jason Street Denver CO 80216
LITTLE BROWN HOUSE DISPENSARY,LITTLE BROWN HOUSE,403-01529,"4425 East 46th Avenue, Suite A",Denver,80216,Medical,"4425 East 46th Avenue, Suite A Denver CO 80216"
LITTLE BROWN HOUSE DISPENSARY,LITTLE BROWN HOUSE,403-01602,"4425 East 46th Avenue, Unit A",Denver,80216,Medical,"4425 East 46th Avenue, Unit A Denver CO 80216"
LOTUS MEDICAL LLC,,403-00474,4950 East 41st Avenue,Denver,80216,Medical,4950 East 41st Avenue Denver CO 80216
LYONS LAKE CORP,,403R-00055,4209 Delaware Street,Denver,80216,Retail,4209 Delaware Street Denver CO 80216
MGI INC,KINDMAN,403R-00009,4125 Elati Street,Denver,80216,Retail,4125 Elati Street Denver CO 80216
MGI INC,KINDMAN,403R-00008,4715 Colorado Blvd.,Denver,80216,Retail,4715 Colorado Blvd. Denver CO 80216
MMST LLC,WS EL JEFE,403-01499,4260 Kearney Street,Denver,80216,Medical,4260 Kearney Street Denver CO 80216
MOUNTAIN GIRL LPT INC,,403R-00520,794 East 51st Avenue,Denver,80216,Retail,794 East 51st Avenue Denver CO 80216
NATURES CURE LLC,,403R-00135,"4425 East 46th Avenue, Room 2, Suite A",Denver,80216,Retail,"4425 East 46th Avenue, Room 2, Suite A Denver CO 80216"
NATURES CURE LLC,,403-01584,"4425 East 46th Avenue, Suite A Room 1",Denver,80216,Medical,"4425 East 46th Avenue, Suite A Room 1 Denver CO 80216"
NORTHERN LIGHTS NATURALS LLC,NORTHERN LIGHTS CANNABIS CO.,403R-00052,"835 E 50th Ave, Suite A-B",Denver,80216,Retail,"835 E 50th Ave, Suite A-B Denver CO 80216"
NORTHERN LIGHTS NATURALS LLC,NORTHERN LIGHTS CANNABIS CO.,403-00390,"835 East 50th Avenue, Suites A-B",Denver,80216,Medical,"835 East 50th Avenue, Suites A-B Denver CO 80216"
P&C EXPRESS LLC,,403-00245,"4237 Josephine Street, Units 102 & 103",Denver,80216,Medical,"4237 Josephine Street, Units 102 & 103 Denver CO 80216"
PEAK HOLDINGS GROUP LLC,PEAK,403-00618,4880 East 41st Avenue,Denver,80216,Medical,4880 East 41st Avenue Denver CO 80216
PHYSICIAN PREFERRED PRODUCTS LLC,,403-01568,4080 Globeville Road,Denver,80216,Medical,4080 Globeville Road Denver CO 80216
PLATTE VALLEY DISPENSARY LLC,,403-00032,3926 Race Street,Denver,80216,Medical,3926 Race Street Denver CO 80216
REVTEC LLC,,403-01513,2640 East 43rd Avenue,Denver,80216,Medical,2640 East 43rd Avenue Denver CO 80216
RME GROUP LLC,ORGANICA,403-00415,4155 Grape Street,Denver,80216,Medical,4155 Grape Street Denver CO 80216
ROCKY MOUNTAIN HIGH PAIN MANAGEMENT INC,,403-00061,"4237 Josephine Street, Unit 102",Denver,80216,Medical,"4237 Josephine Street, Unit 102 Denver CO 80216"
ROCKY MOUNTAIN RETAIL MANAGEMENT LLC,ROCKY MOUNTAIN HIGH,403-01429,4228 York Street,Denver,80216,Medical,4228 York Street Denver CO 80216
SECRET MINT COMPANY,SECRET MINT COMPANY,403-01417,"4900 Acoma Street, Unit C",Denver,80216,Medical,"4900 Acoma Street, Unit C Denver CO 80216"
SIMPLY PURE COLORADO LLC,SIMPLY PURE,403-01645,4694 North Glencoe Street,Denver,80216,Medical,4694 North Glencoe Street Denver CO 80216
STANDING AKIMBO LLC,,403-01101,835 East 50th Avenue,Denver,80216,Medical,835 East 50th Avenue Denver CO 80216
TDM LLC,TREES,403-01682,4140 York Street,Denver,80216,Medical,4140 York Street Denver CO 80216
THE GENETIC LOCKER INC,TERRAPIN CARE STATION,403R-00230,5140 North Clarkson Street,Denver,80216,Retail,5140 North Clarkson Street Denver CO 80216
THE TEA POT LLC,PINK HOUSE MILE HIGH,403-00081,2121 East 44th Avenue,Denver,80216,Medical,2121 East 44th Avenue Denver CO 80216
TREE OF WELLNESS INC,,403-00664,3303 East 42nd Avenue,Denver,80216,Medical,3303 East 42nd Avenue Denver CO 80216
TRILL THERAPEUTICS LLC,TRILL ALTERNATIVES,403-00644,3301 East 42nd Avenue,Denver,80216,Medical,3301 East 42nd Avenue Denver CO 80216
TWOG FEDERAL LLC,BUDDY BOY,403-00373,5040 York Street,Denver,80216,Medical,5040 York Street Denver CO 80216
TWOG FEDERAL LLC,TWOG FEDERAL LLC,403-01586,5050 York Street,Denver,80216,Medical,5050 York Street Denver CO 80216
TWOG WALNUT LLC,BUDDY BOY,403-01103,4501 Wynkoop Street,Denver,80216,Medical,4501 Wynkoop Street Denver CO 80216
VITA MEDS LLC,MR NICE GUYS,403-01627,4359 Claude Court,Denver,80216,Medical,4359 Claude Court Denver CO 80216
BEDDOR CLAUDE LLC,CHRONIC THERAPY,403R-00287,10030 West 27th Avenue,Wheat Ridge,80215,Retail,10030 West 27th Avenue Wheat Ridge CO 80215
KIND PAIN MANAGEMENT INC.,KIND PAIN MANAGEMENT,403-00957,2636 Youngfield Street,Lakewood,80215,Medical,2636 Youngfield Street Lakewood CO 80215
BERKELEY MMC LLC,TRU CANNABIS BERKELEY,403-00216,4103 Sheridan Boulevard,Mountain View,80212,Medical,4103 Sheridan Boulevard Mountain View CO 80212
MEDICINAL WELLNESS CENTER LLC,,403-00833,"5195 East 39th Avenue, Unit 102",Denver,80212,Medical,"5195 East 39th Avenue, Unit 102 Denver CO 80212"
AJS EVANS LLC,SWEET LEAF,403-01564,1011 West 45th Avenue,Denver,80211,Medical,1011 West 45th Avenue Denver CO 80211
ALIVE HERBAL MEDICINE,,403-00633,4573 Pecos Street,Denver,80211,Medical,4573 Pecos Street Denver CO 80211
COMPASSIONATE ENTERPRISES LLC,THE CLINIC ON WADSWORTH,403-00482,1127 West 46th Avenue,Denver,80211,Medical,1127 West 46th Avenue Denver CO 80211
GREEN LEAF LLC,,403-00014,"1441 West 46th Avenue, Units 1, 2 & 3",Denver,80211,Medical,"1441 West 46th Avenue, Units 1, 2 & 3 Denver CO 80211"
GREEN LEAF LLC,,403-01361,"1441 West 46th Avenue, Units 20, 21 & 22",Denver,80211,Medical,"1441 West 46th Avenue, Units 20, 21 & 22 Denver CO 80211"
HERBAL ALTERNATIVES LLC,SUNNYSIDE DISPENSARY,403-01613,4755 Lipan Street,Denver,80211,Medical,4755 Lipan Street Denver CO 80211
HOLLY MEDICINAL SERVICES LLC,THE CLINIC ALTERNATIVE MEDICINE DBA THE CLINIC,403-00198,1127 West 46th Ave,Denver,80211,Medical,1127 West 46th Ave Denver CO 80211
JPJR AND ASSOCIATES,,403R-00092,4590 Jason Street,Denver,80211,Retail,4590 Jason Street Denver CO 80211
JPJR AND ASSOCIATES,STASH HOUSE,403-01694,4707 Lipan Street,Denver,80211,Medical,4707 Lipan Street Denver CO 80211
LYONS FINEST CONFIDENTIAL CARE LLC,,403-00632,"1441 West 46th Avenue, Unit 6",Denver,80211,Medical,"1441 West 46th Avenue, Unit 6 Denver CO 80211"
URBAN HEALTH & WELLNESS INC,URBAN DISPENSARY,403-00730,4090 North Jason Street,Denver,80211,Medical,4090 North Jason Street Denver CO 80211
VITA MEDS LLC,MR NICE GUYS,403-01674,4421 Inca Street,Denver,80211,Medical,4421 Inca Street Denver CO 80211
CO-AGRONOMICS LLC,THE GREEN DEPOT,403-01089,2020 South Broadway,Denver,80210,Medical,2020 South Broadway Denver CO 80210
HOBBY FARMS LLC,A CUT ABOVE,403-00686,1911 South Broadway,Denver,80210,Medical,1911 South Broadway Denver CO 80210
COLORADO HEALING LLC,HEADQUARTERS,403-01340,5227 Monroe Street,Denver,80209,Medical,5227 Monroe Street Denver CO 80209
5B1S LLC,1859,403R-00561,3880 Holly Street,Denver,80207,Retail,3880 Holly Street Denver CO 80207
BIOCARE INC,PINK HOUSE PEORIA CROSSING,403-01272,4925 East 38th Avenue,Denver,80207,Medical,4925 East 38th Avenue Denver CO 80207
GREEN KIWI 1 LLC,FLAVORED ESSENTIALS,403-00020,3955 Oneida Street,Denver,80207,Medical,3955 Oneida Street Denver CO 80207
HERBAL HEALTH LLC,LOCAL PRODUCT OF COLORADO,403-01018,3930 Holly Street,Denver,80207,Medical,3930 Holly Street Denver CO 80207
JGB VENTURES LLC,DANK LLC,403R-00004,"3835 Elm Street, Unit B & C",Denver,80207,Retail,"3835 Elm Street, Unit B & C Denver CO 80207"
JGB VENTURES LLC,DANK LLC,403-00013,"3835 Elm Street, Units B & C",Denver,80207,Medical,"3835 Elm Street, Units B & C Denver CO 80207"
MEDICINAL WELLNESS CENTER LLC,,403-01522,5005 E. 39th Avenue,Denver,80207,Medical,5005 E. 39th Avenue Denver CO 80207
NATURE MED INC,KIND-MEDS,403-01491,"5105 East 38th Avenue, Unit 104",Denver,80207,Medical,"5105 East 38th Avenue, Unit 104 Denver CO 80207"
PEARL CENTER LLC,PINK HOUSE PEARL,403-00502,"4925 East 38th Avenue, Unit 105",Denver,80207,Medical,"4925 East 38th Avenue, Unit 105 Denver CO 80207"
WALKING RAVEN LLC,,403R-00072,3936 Niagara Street,Denver,80207,Retail,3936 Niagara Street Denver CO 80207
CITI-MED LLC,STARBUDS,403R-00027,"4228 York Street, #101",Denver,80205,Retail,"4228 York Street, #101 Denver CO 80205"
COLORADOS BEST INC,LACONTES CLONE BAR + DISPENSARY,403-00160,"3887 North Steele Street, Unit 102",Denver,80205,Medical,"3887 North Steele Street, Unit 102 Denver CO 80205"
COLORADOS BEST INC,LACONTES CLONE BAR & DISPENSARY,403R-00248,"3887 Steele Street, Unit 102",Denver,80205,Retail,"3887 Steele Street, Unit 102 Denver CO 80205"
IVITA WELLNESS LLC,IVITA,403-01395,"1660 E. 40th Avenue, Unit A",Denver,80205,Medical,"1660 E. 40th Avenue, Unit A Denver CO 80205"
KTA LLC,HIGH ST CANNABIS STATION,403-01591,3944 High Street,Denver,80205,Medical,3944 High Street Denver CO 80205
MEDICAL CANNABIS COLORADO LLC,CURE COLORADO,403-01091,3930 Blake Street,Denver,80205,Medical,3930 Blake Street Denver CO 80205
MILE HIGH MEDICAL LLC,MMJ AMERICA UPTOWN,403-01398,2042 Arapahoe Street,Denver,80205,Medical,2042 Arapahoe Street Denver CO 80205
TWOG WALNUT LLC,BUDDY BOY,403R-00432,3814 Walnut,Denver,80205,Retail,3814 Walnut Denver CO 80205
TWOG WALNUT LLC,BUDDY BOY,403-00167,3814 Walnut Street,Denver,80205,Medical,3814 Walnut Street Denver CO 80205
WESTERN SLOPE CAREGIVERS LLC,,403-00667,3244 Walnut Street,Denver,80205,Medical,3244 Walnut Street Denver CO 80205
3B FEDERAL1 LLC,BUDDY BOY,403-01141,777 Umatilla Street,Denver,80204,Medical,777 Umatilla Street Denver CO 80204
ALCC LLC,NEXT HARVEST WELLNESS,403R-00181,750 Canosa Court,Denver,80204,Retail,750 Canosa Court Denver CO 80204
ALCC LLC,NEXT HARVEST WELLNESS,403-00555,750 North Canosa Court,Denver,80204,Medical,750 North Canosa Court Denver CO 80204
ALLGREENS,ALLGREENS,403-00002,762 / 764 Kalamath Street,Denver,80204,Medical,762 / 764 Kalamath Street Denver CO 80204
ALTERNATIVE MEDICINE ON THE MALL LLC,NATIVE ROOTS APOTHECARY,403R-00032,680 Lipan Street,Denver,80204,Retail,680 Lipan Street Denver CO 80204
ALTERNATIVE MEDICINE ON THE MALL LLC,NATIVE ROOTS APOTHECARY,403-00626,"680 Lipan Street, Suite 101",Denver,80204,Medical,"680 Lipan Street, Suite 101 Denver CO 80204"
ANNIES TOBACCO EMPORIUM LLC,ANNIE?S DISPENSARY,403-00602,"695 Bryant Street, Unit 500",Denver,80204,Medical,"695 Bryant Street, Unit 500 Denver CO 80204"
BOULDER COUNTY CAREGIVERS LLC,,403-01488,"695 Bryant, Unit 700",Denver,80204,Medical,"695 Bryant, Unit 700 Denver CO 80204"
GREEN CROSS COLORADO LLC,,403R-00112,"660 Bryant Street, Unit 102",Denver,80204,Retail,"660 Bryant Street, Unit 102 Denver CO 80204"
GREEN GRASS LLC,GREEN GRASS LLC,403R-00084,670 Bryant Street,Denver,80204,Retail,670 Bryant Street Denver CO 80204
GREEN GRASS LLC,,403-00459,670 North Bryant Street,Denver,80204,Medical,670 North Bryant Street Denver CO 80204
GREEN MEDICALS INC,GREEN DOOR WELLNESS CENTER#2,403-01107,"777 Umatilla Street, Suite E",Denver,80204,Medical,"777 Umatilla Street, Suite E Denver CO 80204"
GREEN MOUNTAIN CARE GROUP LLC,GREEN MOUNTAIN CARE,403-00263,"777 Canosa Court, Unit 101",Denver,80204,Medical,"777 Canosa Court, Unit 101 Denver CO 80204"
GREENWERKZ LLC,,403-00228,830 North Wyandot Street,Denver,80204,Medical,830 North Wyandot Street Denver CO 80204
HERBAL OPTIONS LLC,GOOD MEDS,403-01118,866 Navajo Street,Denver,80204,Medical,866 Navajo Street Denver CO 80204
HERBAL OPTIONS LLC,GOOD MEDS ENGLEWOOD,403-01116,880 Navajo Street,Denver,80204,Medical,880 Navajo Street Denver CO 80204
KIND PAIN MANAGEMENT INC,KIND PAIN MANAGEMENT,403-01609,1001 Tejon Street,Denver,80204,Medical,1001 Tejon Street Denver CO 80204
MILE HIGH THERAPEUTIC NETWORK LLC,,403-00295,900 North Vallejo Street,Denver,80204,Medical,900 North Vallejo Street Denver CO 80204
MILE HIGH THERAPEUTIC NETWORK LLC,ALTITUDE WEST,403R-00012,900 Vallejo Street,Denver,80204,Retail,900 Vallejo Street Denver CO 80204
ROCKY MOUNTAIN FARMACY INC,ROCKY MOUNTAIN FARMACY INC,403R-00011,695 Bryant Street,Denver,80204,Retail,695 Bryant Street Denver CO 80204
ROCKY MOUNTAIN FARMACY INC,THE SHELTER,403-00246,695 Bryant Street Unit 400,Denver,80204,Medical,695 Bryant Street Unit 400 Denver CO 80204
ROCKY MOUNTAIN FARMACY INC,THE RETREAT,403-00244,"695 Bryant Street, Unit 600",Denver,80204,Medical,"695 Bryant Street, Unit 600 Denver CO 80204"
STAYCON LLC,CRAFT,403-01546,"688 Bryant Street, Suites 100-104, 200",Denver,80204,Medical,"688 Bryant Street, Suites 100-104, 200 Denver CO 80204"
THE GREEN SOLUTION LLC,,403-00179,2600 West Barberry Place,Denver,80204,Medical,2600 West Barberry Place Denver CO 80204
THE PURPLE DRAGON LLC,THE PURPLE DRAGON,403-00029,1237 Shoshone Street,Denver,80204,Medical,1237 Shoshone Street Denver CO 80204
TREE LINE PREMIER NEDERLAND LLC,TREE LINE PREMIER,403-01427,688 Bryant Street,Denver,80204,Medical,688 Bryant Street Denver CO 80204
WALKING RAVEN II LLC,WALKING RAVEN II,403R-00073,"875 Navajo Street, Parcel B",Denver,80204,Retail,"875 Navajo Street, Parcel B Denver CO 80204"
WESTERN REMEDIES LLC,,403R-00005,"777 Canosa Court, Suite 102",Denver,80204,Retail,"777 Canosa Court, Suite 102 Denver CO 80204"
WESTERN REMEDIES LLC,,403-00270,"777 Canosa Court, Units 102/104",Denver,80204,Medical,"777 Canosa Court, Units 102/104 Denver CO 80204"
TETRAHYDROCENTER LLC,TETRAHYDRO CENTER LLC,403R-00075,221 North Wyandot Street,Denver,80203,Retail,221 North Wyandot Street Denver CO 80203
TETRAHYDROCENTER LLC,,403-00662,221 Wyandot Street,Denver,80203,Medical,221 Wyandot Street Denver CO 80203
SMMS LLC,,403R-00566,6995 Imboden Road,Watkins,80137,Retail,6995 Imboden Road Watkins CO 80137
AMERICAN WHOLESALE LLC,PALMER LAKE WELLNESS CENTER,403-00666,855 Highway 105,Palmer Lake,80133,Medical,855 Highway 105 Palmer Lake CO 80133
PREMIER ORGANICS LLC,,403R-00513,850 A&B Commerical Lane,Palmer Lake,80133,Retail,850 A&B Commerical Lane Palmer Lake CO 80133
I & S LLC,SILVER STEM FINE CANNABIS,403-00679,1086 West Littleton Boulevard,Littleton,80122,Medical,1086 West Littleton Boulevard Littleton CO 80122
MOTHER NATURES MIRACLE LLC,,403-00240,315 West Littleton Boulevard,Littleton,80120,Medical,315 West Littleton Boulevard Littleton CO 80120
NATURES KISS CANNABIS SERVICES HEALTH & WELLNESS,NATURES KISS,403-00643,4332 South Broadway,Englewood,80113,Medical,4332 South Broadway Englewood CO 80113
BUDDIES WELLNESS LLC,LA BODEGA,403-01470,"4695 South Windermere, Units A & B",Englewood,80110,Medical,"4695 South Windermere, Units A & B Englewood CO 80110"
MEDICAL MJ SUPPLY LLC,BESTCOLORADOMEDS.ORG,403R-00203,4800 Lamar Street,Wheat Ridge,80033,Retail,4800 Lamar Street Wheat Ridge CO 80033
MEDICAL MJ SUPPLY LLC,Medical MJ Supply,403-00578,4800 Lamar Street Unit B 1st Floor,Wheat Ridge,80033,Medical,4800 Lamar Street Unit B 1st Floor Wheat Ridge CO 80033
MEDICAL MJ SUPPLY LLC,BESTCOLORADOMEDS.ORG,403R-00202,4845 Van Gordon S,Wheat Ridge,80033,Retail,4845 Van Gordon S Wheat Ridge CO 80033
MEDICAL MJ SUPPLY LLC,,403-01337,4845 Van Gordon Street,Wheat Ridge,80033,Medical,4845 Van Gordon Street Wheat Ridge CO 80033
HERBAL WELLNESS LLC,HERBAL WELLNESS LLC,403-01050,"1224 Commerce Court, Unit 7,",Lafayette,80026,Medical,"1224 Commerce Court, Unit 7, Lafayette CO 80026"
HERBAL WELLNESS LLC,,403R-00282,"1224 Commerce Court, Units 4 & 5",Lafayette,80026,Retail,"1224 Commerce Court, Units 4 & 5 Lafayette CO 80026"
OPTIONS MEDICAL CENTER WR LLC,OPTIONS,403R-00294,"1700 South 120th Street, #B1",Lafayette,80026,Retail,"1700 South 120th Street, #B1 Lafayette CO 80026"
OPTIONS MEDICAL CENTER WR LLC,OPTIONS,403-01647,"1700 South 120th Street, Unit B1, B2, B3A",Lafayette,80026,Medical,"1700 South 120th Street, Unit B1, B2, B3A Lafayette CO 80026"
RINO SUPPLY CO INC,,403-01200,10452 Isabelle Road,Lafayette,80026,Medical,10452 Isabelle Road Lafayette CO 80026
SKINNY PINEAPPLE INC,THE FARM,403R-00275,"1265 Rock Creek Circle, Suite A",Lafayette,80026,Retail,"1265 Rock Creek Circle, Suite A Lafayette CO 80026"
SKINNY PINEAPPLE INC,THE FARM,403R-00276,"1265 Rock Creek Circle, Suite B",Lafayette,80026,Retail,"1265 Rock Creek Circle, Suite B Lafayette CO 80026"
BEDDOR CLAUDE LLC,CHRONIC THERAPY,403R-00593,"482 Laredo Street, Unit P-T",Aurora,80011,Retail,"482 Laredo Street, Unit P-T Aurora CO 80011"
CANNABIS MAXIMUS LLC,CANNABIS MAXIMUS,403R-00588,"472 Laredo Street, Unit L",Aurora,80011,Retail,"472 Laredo Street, Unit L Aurora CO 80011"
DEBEST CONSULTING LLC,TREE HOUSE,403R-00349,"482 Laredo Street, Unit A-M and O",Aurora,80011,Retail,"482 Laredo Street, Unit A-M and O Aurora CO 80011"
IBANNABI INC,IBANNABI INC,403R-00472,"472 Laredo Street, A-J & P-S",Aurora,80011,Retail,"472 Laredo Street, A-J & P-S Aurora CO 80011"
JOSEPH ARTHUR BOTANICALS LLC,,403R-00358,"714 N. Ventura Street, Bldg1 Ste B&C, Bldg 2 Ste B&C",Aurora,80011,Retail,"714 N. Ventura Street, Bldg1 Ste B&C, Bldg 2 Ste B&C Aurora CO 80011"
PEAK 5280 LLC,,403R-00477,13800 East Moncrieff Place,Aurora,80011,Retail,13800 East Moncrieff Place Aurora CO 80011
REVERED INC,,403R-00480,3590 Revere Street,Aurora,80011,Retail,3590 Revere Street Aurora CO 80011
SAN TOURE LLC,,403R-00389,"765 N Telluride St, Unit B15",Aurora,80011,Retail,"765 N Telluride St, Unit B15 Aurora CO 80011"
PI STRATEGIES INC,,403R-00350,"11900 E 33rd Avenue, Suite 2",Aurora,80010,Retail,"11900 E 33rd Avenue, Suite 2 Aurora CO 80010"
